var calles={
"type": "FeatureCollection",
"name": "calles",
"crs": { "type": "name", "properties": { "name": "urn:ogc:def:crs:OGC:1.3:CRS84" } },
"features": [
{ "type": "Feature", "properties": { "Importanci": null, "Sentido": null, "Nombre": null }, "geometry": { "type": "MultiLineString", "coordinates": [ [ [ -68.7712083, -32.9154997 ], [ -68.7706889, -32.9160096 ], [ -68.7699334, -32.916613 ], [ -68.769585, -32.916905 ], [ -68.768710171322581, -32.91762812932464 ] ] ] } },
{ "type": "Feature", "properties": { "Importanci": null, "Sentido": null, "Nombre": "Callejón Escorihuela" }, "geometry": { "type": "MultiLineString", "coordinates": [ [ [ -68.7696053, -32.9354609 ], [ -68.7675775, -32.9327057 ], [ -68.7669958, -32.9319154 ], [ -68.766197213690106, -32.930847314700188 ], [ -68.7642364, -32.9282355 ], [ -68.7631374, -32.9268059 ], [ -68.7616821, -32.9248998 ] ] ] } },
{ "type": "Feature", "properties": { "Importanci": null, "Sentido": null, "Nombre": null }, "geometry": { "type": "MultiLineString", "coordinates": [ [ [ -68.7555793, -32.9279381 ], [ -68.7552279, -32.9282601 ], [ -68.7550505, -32.9284104 ], [ -68.7549423, -32.9285423 ], [ -68.7548849, -32.928626 ], [ -68.754819, -32.9287097 ], [ -68.7547623, -32.9287813 ], [ -68.7547222, -32.9288382 ], [ -68.754652, -32.9289334 ] ] ] } },
{ "type": "Feature", "properties": { "Importanci": null, "Sentido": null, "Nombre": "Ruiz" }, "geometry": { "type": "MultiLineString", "coordinates": [ [ [ -68.770904903519153, -32.938412064961277 ], [ -68.770835868313611, -32.938311989870812 ], [ -68.7693486, -32.9355297 ] ] ] } },
{ "type": "Feature", "properties": { "Importanci": null, "Sentido": null, "Nombre": null }, "geometry": { "type": "MultiLineString", "coordinates": [ [ [ -68.766767211525547, -32.931995585322099 ], [ -68.7636349, -32.9328785 ] ] ] } },
{ "type": "Feature", "properties": { "Importanci": null, "Sentido": null, "Nombre": "Famatina Sur" }, "geometry": { "type": "MultiLineString", "coordinates": [ [ [ -68.765127, -32.9348645 ], [ -68.7636349, -32.9328785 ], [ -68.7620649, -32.9308225 ], [ -68.7618014, -32.9304775 ], [ -68.758823257338904, -32.926488376119245 ] ] ] } },
{ "type": "Feature", "properties": { "Importanci": "Frontera", "Sentido": null, "Nombre": "Republiqueta" }, "geometry": { "type": "MultiLineString", "coordinates": [ [ [ -68.754446287298919, -32.928807344072119 ], [ -68.75738348729891, -32.933126744072119 ], [ -68.7602608, -32.9377063 ] ] ] } },
{ "type": "Feature", "properties": { "Importanci": null, "Sentido": null, "Nombre": null }, "geometry": { "type": "MultiLineString", "coordinates": [ [ [ -68.7684149, -32.9186959 ], [ -68.7683884, -32.9187404 ], [ -68.7683491, -32.9187776 ], [ -68.7682999, -32.9188051 ], [ -68.7682488, -32.9188268 ], [ -68.7682119, -32.918827 ], [ -68.7681601, -32.918822 ], [ -68.7681048, -32.9188078 ], [ -68.7680555, -32.9187823 ], [ -68.7680154, -32.9187472 ], [ -68.767987, -32.9187048 ], [ -68.7679723, -32.9186578 ], [ -68.7679706, -32.9186408 ], [ -68.7679764, -32.9185889 ], [ -68.7679988, -32.9185403 ], [ -68.7680359, -32.9184984 ], [ -68.768085, -32.9184665 ], [ -68.7681426, -32.9184469 ], [ -68.7682043, -32.9184411 ], [ -68.7682657, -32.9184494 ], [ -68.7683343, -32.9184783 ], [ -68.7683876, -32.9185246 ], [ -68.7684197, -32.9185831 ], [ -68.7684269, -32.9186473 ], [ -68.7684149, -32.9186959 ] ] ] } },
{ "type": "Feature", "properties": { "Importanci": null, "Sentido": null, "Nombre": null }, "geometry": { "type": "MultiLineString", "coordinates": [ [ [ -68.7832942, -32.9080676 ], [ -68.7829213, -32.9080321 ], [ -68.7826947, -32.9080333 ], [ -68.7821886, -32.9081066 ], [ -68.7808721, -32.9084036 ] ] ] } },
{ "type": "Feature", "properties": { "Importanci": null, "Sentido": null, "Nombre": null }, "geometry": { "type": "MultiLineString", "coordinates": [ [ [ -68.7746917, -32.9126546 ], [ -68.774478, -32.9129486 ], [ -68.7744214, -32.9130422 ], [ -68.7744348, -32.9131266 ], [ -68.7744838, -32.9131918 ] ] ] } },
{ "type": "Feature", "properties": { "Importanci": null, "Sentido": null, "Nombre": null }, "geometry": { "type": "MultiLineString", "coordinates": [ [ [ -68.7618101, -32.923286 ], [ -68.7614548, -32.923465 ], [ -68.7612939, -32.9235607 ], [ -68.7611636, -32.923627 ], [ -68.7606401, -32.9239256 ] ] ] } },
{ "type": "Feature", "properties": { "Importanci": null, "Sentido": null, "Nombre": "25 de Mayo" }, "geometry": { "type": "MultiLineString", "coordinates": [ [ [ -68.7677122, -32.9189275 ], [ -68.7678208, -32.9188674 ], [ -68.7678803, -32.9188307 ], [ -68.7679256, -32.918798 ], [ -68.767964, -32.9187457 ], [ -68.7679735, -32.9187151 ], [ -68.7679723, -32.9186578 ] ] ] } },
{ "type": "Feature", "properties": { "Importanci": null, "Sentido": null, "Nombre": null }, "geometry": { "type": "MultiLineString", "coordinates": [ [ [ -68.7679706, -32.9186408 ], [ -68.767905, -32.9185947 ], [ -68.7678811, -32.918565 ], [ -68.7678518, -32.9185436 ], [ -68.7678184, -32.9185291 ], [ -68.7677601, -32.9185241 ], [ -68.7677047, -32.9185277 ], [ -68.7676604, -32.9185323 ], [ -68.7676174, -32.9185391 ], [ -68.7675606, -32.9185552 ], [ -68.7675114, -32.9185678 ], [ -68.7674636, -32.9185884 ], [ -68.7674119, -32.9186187 ], [ -68.7673707, -32.9186394 ], [ -68.7673051, -32.9186803 ], [ -68.7672378, -32.9187293 ], [ -68.7667212, -32.9191075 ], [ -68.7657505, -32.9198343 ] ] ] } },
{ "type": "Feature", "properties": { "Importanci": null, "Sentido": null, "Nombre": null }, "geometry": { "type": "MultiLineString", "coordinates": [ [ [ -68.7699334, -32.916613 ], [ -68.7696595, -32.9169208 ], [ -68.7695674, -32.9170708 ], [ -68.7695276, -32.9171597 ], [ -68.7695018, -32.9173175 ], [ -68.7695263, -32.9176228 ] ] ] } },
{ "type": "Feature", "properties": { "Importanci": null, "Sentido": null, "Nombre": "La Rioja" }, "geometry": { "type": "MultiLineString", "coordinates": [ [ [ -68.7856753, -32.912209 ], [ -68.7855522, -32.9122388 ], [ -68.7849326, -32.9123718 ], [ -68.7842475, -32.9125137 ], [ -68.7836041, -32.912647 ], [ -68.7829842, -32.9127754 ], [ -68.7815679, -32.9130688 ], [ -68.780722, -32.913244 ], [ -68.7805712, -32.9133071 ], [ -68.7804546, -32.9133453 ], [ -68.780263, -32.9134103 ], [ -68.7796302, -32.9135488 ], [ -68.77879124824679, -32.913741888618652 ] ] ] } },
{ "type": "Feature", "properties": { "Importanci": null, "Sentido": null, "Nombre": "Pizurno" }, "geometry": { "type": "MultiLineString", "coordinates": [ [ [ -68.7817744, -32.9095905 ], [ -68.781479, -32.9096719 ], [ -68.7810911, -32.909764 ], [ -68.780626, -32.909847 ], [ -68.7801011, -32.909963 ], [ -68.779299729145677, -32.910097605525202 ] ] ] } },
{ "type": "Feature", "properties": { "Importanci": null, "Sentido": null, "Nombre": "Ushuaia" }, "geometry": { "type": "MultiLineString", "coordinates": [ [ [ -68.7803423, -32.9149234 ], [ -68.7800909, -32.9144382 ], [ -68.7798488, -32.9139708 ], [ -68.779678246040191, -32.913608417928977 ] ] ] } },
{ "type": "Feature", "properties": { "Importanci": null, "Sentido": null, "Nombre": "Rí­o Juramento" }, "geometry": { "type": "MultiLineString", "coordinates": [ [ [ -68.7771345, -32.9119195 ], [ -68.7762212, -32.9120658 ], [ -68.7755087, -32.9121811 ] ] ] } },
{ "type": "Feature", "properties": { "Importanci": null, "Sentido": null, "Nombre": "Olavarrí­a" }, "geometry": { "type": "MultiLineString", "coordinates": [ [ [ -68.7893502, -32.9257069 ], [ -68.7883672, -32.9239403 ], [ -68.7883097, -32.9239135 ], [ -68.7879372, -32.9240096 ], [ -68.7878545, -32.9240128 ], [ -68.7878115, -32.9239911 ], [ -68.786493380619277, -32.921655813879447 ] ] ] } },
{ "type": "Feature", "properties": { "Importanci": null, "Sentido": null, "Nombre": "Cacheuta" }, "geometry": { "type": "MultiLineString", "coordinates": [ [ [ -68.7816054, -32.9264865 ], [ -68.781727859455614, -32.927331136782762 ] ] ] } },
{ "type": "Feature", "properties": { "Importanci": null, "Sentido": null, "Nombre": "Heroes de Malvinas" }, "geometry": { "type": "MultiLineString", "coordinates": [ [ [ -68.785668143341553, -32.923904245849684 ], [ -68.785777924851956, -32.924795548640702 ] ] ] } },
{ "type": "Feature", "properties": { "Importanci": null, "Sentido": null, "Nombre": "Quinquela Martín" }, "geometry": { "type": "MultiLineString", "coordinates": [ [ [ -68.7827535, -32.9178909 ], [ -68.7806998, -32.9182618 ], [ -68.779531284731306, -32.918477333567935 ] ] ] } },
{ "type": "Feature", "properties": { "Importanci": null, "Sentido": null, "Nombre": null }, "geometry": { "type": "MultiLineString", "coordinates": [ [ [ -68.7828697, -32.9193676 ], [ -68.7831485, -32.9197508 ] ] ] } },
{ "type": "Feature", "properties": { "Importanci": null, "Sentido": null, "Nombre": "Puerto Deseado" }, "geometry": { "type": "MultiLineString", "coordinates": [ [ [ -68.783253988410721, -32.924079903133702 ], [ -68.783317761160788, -32.925034360595774 ] ] ] } },
{ "type": "Feature", "properties": { "Importanci": null, "Sentido": null, "Nombre": "Azzoni" }, "geometry": { "type": "MultiLineString", "coordinates": [ [ [ -68.7882841, -32.9184789 ], [ -68.7881894, -32.9175031 ] ] ] } },
{ "type": "Feature", "properties": { "Importanci": null, "Sentido": null, "Nombre": "Everest" }, "geometry": { "type": "MultiLineString", "coordinates": [ [ [ -68.7878519, -32.9265598 ], [ -68.7868636, -32.926689 ], [ -68.7862122, -32.9267741 ], [ -68.7855551, -32.92686 ], [ -68.7849181, -32.9269432 ], [ -68.784259, -32.9270294 ], [ -68.7836314, -32.9271114 ], [ -68.7830043, -32.9271933 ], [ -68.7823987, -32.9272725 ], [ -68.7817458, -32.9273578 ], [ -68.7811391, -32.9274371 ], [ -68.78093290860302, -32.927464586777347 ] ] ] } },
{ "type": "Feature", "properties": { "Importanci": null, "Sentido": null, "Nombre": "Virgen de Luján" }, "geometry": { "type": "MultiLineString", "coordinates": [ [ [ -68.78342907879528, -32.914235623282657 ], [ -68.7829842, -32.9127754 ], [ -68.782833, -32.9122699 ], [ -68.7824224, -32.910898 ] ] ] } },
{ "type": "Feature", "properties": { "Importanci": null, "Sentido": null, "Nombre": "Cecilia Grierson" }, "geometry": { "type": "MultiLineString", "coordinates": [ [ [ -68.784325173300061, -32.9111389064756 ], [ -68.784901909932103, -32.912336923900249 ] ] ] } },
{ "type": "Feature", "properties": { "Importanci": null, "Sentido": null, "Nombre": "Matheu" }, "geometry": { "type": "MultiLineString", "coordinates": [ [ [ -68.7816018, -32.9091755 ], [ -68.7804838, -32.9093582 ], [ -68.779098899456599, -32.909655025825685 ] ] ] } },
{ "type": "Feature", "properties": { "Importanci": null, "Sentido": null, "Nombre": "Villagra" }, "geometry": { "type": "MultiLineString", "coordinates": [ [ [ -68.776793411235673, -32.911458809627725 ], [ -68.7760006, -32.911618 ] ] ] } },
{ "type": "Feature", "properties": { "Importanci": null, "Sentido": null, "Nombre": "Adolfo Calle" }, "geometry": { "type": "MultiLineString", "coordinates": [ [ [ -68.7749395, -32.912802 ], [ -68.776426, -32.9125918 ], [ -68.7774087, -32.9124384 ] ] ] } },
{ "type": "Feature", "properties": { "Importanci": null, "Sentido": null, "Nombre": "Santiago del Estero" }, "geometry": { "type": "MultiLineString", "coordinates": [ [ [ -68.7779086, -32.9133846 ], [ -68.7767311, -32.9135894 ], [ -68.775494294184469, -32.913805111506683 ] ] ] } },
{ "type": "Feature", "properties": { "Importanci": null, "Sentido": null, "Nombre": "Hilario Ascasubi" }, "geometry": { "type": "MultiLineString", "coordinates": [ [ [ -68.7778569, -32.9160519 ], [ -68.7775466, -32.9155112 ] ] ] } },
{ "type": "Feature", "properties": { "Importanci": null, "Sentido": null, "Nombre": "Monteagudo" }, "geometry": { "type": "MultiLineString", "coordinates": [ [ [ -68.7906253, -32.9233883 ], [ -68.7908781, -32.9237897 ], [ -68.7911568, -32.9242426 ] ] ] } },
{ "type": "Feature", "properties": { "Importanci": null, "Sentido": null, "Nombre": "Rí­o Deseado" }, "geometry": { "type": "MultiLineString", "coordinates": [ [ [ -68.772515724981616, -32.925713914130647 ], [ -68.775221, -32.9256198 ] ] ] } },
{ "type": "Feature", "properties": { "Importanci": null, "Sentido": null, "Nombre": "Río Deseado" }, "geometry": { "type": "MultiLineString", "coordinates": [ [ [ -68.786589611511971, -32.925378529632496 ], [ -68.7852933, -32.9255287 ], [ -68.7840174, -32.9256737 ] ] ] } },
{ "type": "Feature", "properties": { "Importanci": null, "Sentido": null, "Nombre": "Glaciar Perito Moreno" }, "geometry": { "type": "MultiLineString", "coordinates": [ [ [ -68.7834393, -32.9262613 ], [ -68.78354369456099, -32.927071259899847 ] ] ] } },
{ "type": "Feature", "properties": { "Importanci": null, "Sentido": null, "Nombre": "Enrique Santos Discépolo" }, "geometry": { "type": "MultiLineString", "coordinates": [ [ [ -68.780117037991118, -32.919411572775893 ], [ -68.781244, -32.9191919 ], [ -68.7833101, -32.918857 ] ] ] } },
{ "type": "Feature", "properties": { "Importanci": null, "Sentido": null, "Nombre": "Puerto Deseado" }, "geometry": { "type": "MultiLineString", "coordinates": [ [ [ -68.783413992053454, -32.923984285567684 ], [ -68.7827797, -32.9228764 ] ] ] } },
{ "type": "Feature", "properties": { "Importanci": null, "Sentido": null, "Nombre": "Van Gogh" }, "geometry": { "type": "MultiLineString", "coordinates": [ [ [ -68.7876348, -32.9185145 ], [ -68.7875583, -32.9175609 ] ] ] } },
{ "type": "Feature", "properties": { "Importanci": null, "Sentido": null, "Nombre": "Cerro Catedral" }, "geometry": { "type": "MultiLineString", "coordinates": [ [ [ -68.7855827, -32.9227621 ], [ -68.7846773, -32.9227964 ], [ -68.7837455, -32.9228357 ], [ -68.7827797, -32.9228764 ], [ -68.781887, -32.922914 ], [ -68.780072, -32.9229905 ], [ -68.778317938693178, -32.923067654704255 ] ] ] } },
{ "type": "Feature", "properties": { "Importanci": null, "Sentido": null, "Nombre": "Mariano Acha" }, "geometry": { "type": "MultiLineString", "coordinates": [ [ [ -68.781076209377403, -32.90977115184522 ], [ -68.7814611, -32.9111194 ], [ -68.781882935627834, -32.912459020981494 ] ] ] } },
{ "type": "Feature", "properties": { "Importanci": null, "Sentido": null, "Nombre": "Hilario Ascasubi" }, "geometry": { "type": "MultiLineString", "coordinates": [ [ [ -68.781312959320545, -32.921926168013506 ], [ -68.781887, -32.922914 ], [ -68.7823011, -32.9236936 ], [ -68.7825245, -32.924094 ], [ -68.7829167, -32.9247965 ], [ -68.7830879, -32.9251034 ], [ -68.7831266, -32.9251728 ], [ -68.7834023, -32.9256668 ], [ -68.7837169, -32.9262272 ] ] ] } },
{ "type": "Feature", "properties": { "Importanci": null, "Sentido": null, "Nombre": "Cacique Estepe" }, "geometry": { "type": "MultiLineString", "coordinates": [ [ [ -68.783871389784181, -32.911191817255336 ], [ -68.7842475, -32.9125137 ], [ -68.784428, -32.9131367 ] ] ] } },
{ "type": "Feature", "properties": { "Importanci": null, "Sentido": null, "Nombre": "El Carrizal" }, "geometry": { "type": "MultiLineString", "coordinates": [ [ [ -68.782242485533857, -32.923696302947754 ], [ -68.7805086, -32.9237789 ], [ -68.77880746106031, -32.923885950144303 ] ] ] } },
{ "type": "Feature", "properties": { "Importanci": null, "Sentido": null, "Nombre": "Chambouleiron" }, "geometry": { "type": "MultiLineString", "coordinates": [ [ [ -68.77893572533425, -32.909366996578811 ], [ -68.7790643, -32.9096662 ], [ -68.7792753, -32.9101021 ], [ -68.7798747, -32.9114573 ], [ -68.7804715, -32.9127431 ], [ -68.780713812819585, -32.913239440137716 ] ] ] } },
{ "type": "Feature", "properties": { "Importanci": null, "Sentido": null, "Nombre": "Becker" }, "geometry": { "type": "MultiLineString", "coordinates": [ [ [ -68.780089860485248, -32.914453705754049 ], [ -68.7786254, -32.9147412 ] ] ] } },
{ "type": "Feature", "properties": { "Importanci": null, "Sentido": null, "Nombre": "Santiago del Estero" }, "geometry": { "type": "MultiLineString", "coordinates": [ [ [ -68.779982, -32.9129565 ], [ -68.778531843231718, -32.913292302334881 ] ] ] } },
{ "type": "Feature", "properties": { "Importanci": null, "Sentido": null, "Nombre": "Balcarce" }, "geometry": { "type": "MultiLineString", "coordinates": [ [ [ -68.7901939, -32.9239416 ], [ -68.7908781, -32.9237897 ], [ -68.7914861, -32.9236497 ], [ -68.792346729265461, -32.923450463384306 ] ] ] } },
{ "type": "Feature", "properties": { "Importanci": null, "Sentido": null, "Nombre": "25 de Mayo" }, "geometry": { "type": "MultiLineString", "coordinates": [ [ [ -68.7740718, -32.9313443 ], [ -68.7748803, -32.9327328 ], [ -68.7756258, -32.9340296 ] ] ] } },
{ "type": "Feature", "properties": { "Importanci": null, "Sentido": null, "Nombre": "Puerto Madryn" }, "geometry": { "type": "MultiLineString", "coordinates": [ [ [ -68.7865545, -32.924797 ], [ -68.7866467, -32.9253684 ], [ -68.7867267, -32.9258576 ], [ -68.78686575233445, -32.926625253199973 ] ] ] } },
{ "type": "Feature", "properties": { "Importanci": null, "Sentido": null, "Nombre": "Capitán Giachino" }, "geometry": { "type": "MultiLineString", "coordinates": [ [ [ -68.7847609, -32.926099 ], [ -68.784890927058541, -32.926895666979256 ] ] ] } },
{ "type": "Feature", "properties": { "Importanci": null, "Sentido": null, "Nombre": "Eduardo Racedo" }, "geometry": { "type": "MultiLineString", "coordinates": [ [ [ -68.782249, -32.9264075 ], [ -68.782355452233972, -32.927204710286425 ] ] ] } },
{ "type": "Feature", "properties": { "Importanci": null, "Sentido": null, "Nombre": "Puerto Argentino" }, "geometry": { "type": "MultiLineString", "coordinates": [ [ [ -68.785055506034979, -32.92394497800457 ], [ -68.7851623, -32.9249219 ], [ -68.7852933, -32.9255287 ], [ -68.7854079, -32.9260195 ], [ -68.785531071692461, -32.926821917848692 ] ] ] } },
{ "type": "Feature", "properties": { "Importanci": null, "Sentido": null, "Nombre": "Quino" }, "geometry": { "type": "MultiLineString", "coordinates": [ [ [ -68.783765, -32.9196467 ], [ -68.7831485, -32.9197508 ], [ -68.7825834, -32.919857 ], [ -68.7825345, -32.9198492 ], [ -68.7824902, -32.919812 ], [ -68.7822911, -32.9195427 ], [ -68.7815111, -32.9196699 ] ] ] } },
{ "type": "Feature", "properties": { "Importanci": null, "Sentido": null, "Nombre": "Colhue Huapi" }, "geometry": { "type": "MultiLineString", "coordinates": [ [ [ -68.7862196, -32.923828 ], [ -68.7856643, -32.9238735 ], [ -68.785353, -32.9238959 ], [ -68.7850515, -32.9239176 ], [ -68.7844163, -32.9239633 ], [ -68.7838425, -32.9240046 ], [ -68.783438, -32.9240337 ], [ -68.7832529, -32.924047 ], [ -68.782585569586018, -32.924107204693229 ] ] ] } },
{ "type": "Feature", "properties": { "Importanci": null, "Sentido": null, "Nombre": "Armada Argentina" }, "geometry": { "type": "MultiLineString", "coordinates": [ [ [ -68.779929145490073, -32.90947749190606 ], [ -68.780477, -32.9113271 ], [ -68.78084931761947, -32.912665369766465 ] ] ] } },
{ "type": "Feature", "properties": { "Importanci": null, "Sentido": null, "Nombre": "Olavarrí­a" }, "geometry": { "type": "MultiLineString", "coordinates": [ [ [ -68.7819978, -32.914563 ], [ -68.7818518, -32.914061 ], [ -68.7817651, -32.9137629 ], [ -68.7815679, -32.9130688 ], [ -68.7814138, -32.9125543 ], [ -68.7810227, -32.9112085 ], [ -68.780626, -32.909847 ], [ -68.7804838, -32.9093582 ], [ -68.780320613398501, -32.908801473014343 ] ] ] } },
{ "type": "Feature", "properties": { "Importanci": null, "Sentido": null, "Nombre": "Rodrí­guez" }, "geometry": { "type": "MultiLineString", "coordinates": [ [ [ -68.790198, -32.9304859 ], [ -68.79194338240579, -32.933278900721454 ] ] ] } },
{ "type": "Feature", "properties": { "Importanci": null, "Sentido": null, "Nombre": "Tierra del Fuego" }, "geometry": { "type": "MultiLineString", "coordinates": [ [ [ -68.778918858778383, -32.914107175792871 ], [ -68.7787377, -32.9137566 ], [ -68.7784944, -32.9132957 ], [ -68.7782315, -32.9127978 ] ] ] } },
{ "type": "Feature", "properties": { "Importanci": null, "Sentido": null, "Nombre": "Lago Argentino" }, "geometry": { "type": "MultiLineString", "coordinates": [ [ [ -68.776645390930454, -32.91094028509837 ], [ -68.7771345, -32.9119195 ], [ -68.7774087, -32.9124384 ], [ -68.7776501, -32.9128954 ], [ -68.7779086, -32.9133846 ], [ -68.7781724, -32.913884 ], [ -68.7783915, -32.9142986 ], [ -68.7786254, -32.9147412 ], [ -68.7788797, -32.9152226 ] ] ] } },
{ "type": "Feature", "properties": { "Importanci": null, "Sentido": null, "Nombre": "20 de Junio" }, "geometry": { "type": "MultiLineString", "coordinates": [ [ [ -68.77395, -32.9331116 ], [ -68.7748803, -32.9327328 ], [ -68.7759612, -32.9322604 ] ] ] } },
{ "type": "Feature", "properties": { "Importanci": "Limite", "Sentido": null, "Nombre": "Tapón Moyano" }, "geometry": { "type": "MultiLineString", "coordinates": [ [ [ -68.77680218365245, -32.93363818143623 ], [ -68.7759612, -32.9322604 ], [ -68.7751896, -32.9309306 ], [ -68.7746645, -32.9300119 ], [ -68.7739247, -32.9286998 ], [ -68.7736073, -32.9281276 ], [ -68.7733505, -32.9276279 ], [ -68.7731169, -32.9271691 ], [ -68.7730494, -32.9270215 ], [ -68.7728824, -32.9266562 ], [ -68.7728379, -32.926563 ], [ -68.7726443, -32.9261702 ], [ -68.7725855, -32.9260709 ], [ -68.7723961, -32.9257218 ], [ -68.7723327, -32.9255977 ], [ -68.7722996, -32.9255372 ], [ -68.7721784, -32.9253174 ], [ -68.7720435, -32.9250726 ], [ -68.7717766, -32.9246102 ], [ -68.7713622, -32.923841 ], [ -68.770862190456754, -32.92290062483093 ] ] ] } },
{ "type": "Feature", "properties": { "Importanci": null, "Sentido": null, "Nombre": "Juan Scalco" }, "geometry": { "type": "MultiLineString", "coordinates": [ [ [ -68.7830177, -32.9183494 ], [ -68.7809809, -32.9187225 ], [ -68.779849265072329, -32.918940942227124 ] ] ] } },
{ "type": "Feature", "properties": { "Importanci": null, "Sentido": null, "Nombre": "Cerro Arco" }, "geometry": { "type": "MultiLineString", "coordinates": [ [ [ -68.7828298, -32.9263361 ], [ -68.782932837590053, -32.927152032526294 ] ] ] } },
{ "type": "Feature", "properties": { "Importanci": null, "Sentido": null, "Nombre": "Mafalda" }, "geometry": { "type": "MultiLineString", "coordinates": [ [ [ -68.784063, -32.920164 ], [ -68.7820012, -32.9205165 ] ] ] } },
{ "type": "Feature", "properties": { "Importanci": null, "Sentido": null, "Nombre": "Picasso" }, "geometry": { "type": "MultiLineString", "coordinates": [ [ [ -68.7870017, -32.918537 ], [ -68.7869845, -32.9184054 ], [ -68.7869118, -32.9175995 ] ] ] } },
{ "type": "Feature", "properties": { "Importanci": null, "Sentido": null, "Nombre": "Rí­o Deseado" }, "geometry": { "type": "MultiLineString", "coordinates": [ [ [ -68.7811472, -32.9256289 ], [ -68.7798273, -32.9257831 ] ] ] } },
{ "type": "Feature", "properties": { "Importanci": null, "Sentido": null, "Nombre": "Pelectay" }, "geometry": { "type": "MultiLineString", "coordinates": [ [ [ -68.78322537852894, -32.91126853782977 ], [ -68.7838719, -32.9111913 ], [ -68.7843279, -32.9111402 ], [ -68.7849504, -32.9110597 ], [ -68.785044164295201, -32.911044336665213 ] ] ] } },
{ "type": "Feature", "properties": { "Importanci": null, "Sentido": null, "Nombre": "Cacheuta" }, "geometry": { "type": "MultiLineString", "coordinates": [ [ [ -68.7794498, -32.9219693 ], [ -68.780072, -32.9229905 ], [ -68.7805086, -32.9237789 ], [ -68.781189, -32.924906 ], [ -68.7813937, -32.9252473 ], [ -68.781416, -32.925321 ], [ -68.7814027, -32.9254735 ], [ -68.7814203, -32.9255596 ], [ -68.7815237, -32.9258229 ], [ -68.7817839, -32.9264646 ] ] ] } },
{ "type": "Feature", "properties": { "Importanci": null, "Sentido": null, "Nombre": "Cacique Bejarano" }, "geometry": { "type": "MultiLineString", "coordinates": [ [ [ -68.781765936218846, -32.913731314924995 ], [ -68.7831989, -32.9133886 ], [ -68.784428, -32.9131367 ], [ -68.7858243, -32.9128425 ] ] ] } },
{ "type": "Feature", "properties": { "Importanci": null, "Sentido": null, "Nombre": "Lope de Vega" }, "geometry": { "type": "MultiLineString", "coordinates": [ [ [ -68.779764017053253, -32.913994779899824 ], [ -68.7789569, -32.9141718 ], [ -68.7783915, -32.9142986 ] ] ] } },
{ "type": "Feature", "properties": { "Importanci": null, "Sentido": null, "Nombre": "La Rioja" }, "geometry": { "type": "MultiLineString", "coordinates": [ [ [ -68.778082068407244, -32.913910482886372 ], [ -68.77697750511733, -32.914093126314043 ] ] ] } },
{ "type": "Feature", "properties": { "Importanci": null, "Sentido": null, "Nombre": "Albert Einstein" }, "geometry": { "type": "MultiLineString", "coordinates": [ [ [ -68.7797296, -32.9124674 ], [ -68.7782315, -32.9127978 ], [ -68.7776501, -32.9128954 ], [ -68.7765922, -32.9130733 ], [ -68.775226521265694, -32.913285277531074 ] ] ] } },
{ "type": "Feature", "properties": { "Importanci": null, "Sentido": null, "Nombre": "Rí­o Atuel" }, "geometry": { "type": "MultiLineString", "coordinates": [ [ [ -68.793196071492176, -32.924760429181177 ], [ -68.7893502, -32.9257069 ], [ -68.7876935, -32.9261313 ], [ -68.7876071, -32.9261502 ] ] ] } },
{ "type": "Feature", "properties": { "Importanci": null, "Sentido": null, "Nombre": "Niñas de Ayohuma" }, "geometry": { "type": "MultiLineString", "coordinates": [ [ [ -68.7891187, -32.9236724 ], [ -68.78789082053909, -32.92156450001572 ] ] ] } },
{ "type": "Feature", "properties": { "Importanci": null, "Sentido": null, "Nombre": "Rodrí­guez" }, "geometry": { "type": "MultiLineString", "coordinates": [ [ [ -68.7769686, -32.9274024 ], [ -68.7780367, -32.929229 ], [ -68.7783214, -32.9297158 ], [ -68.7784246, -32.9298923 ], [ -68.7788011, -32.9304595 ], [ -68.7795505, -32.9316768 ], [ -68.7799199, -32.9322947 ], [ -68.7802135, -32.9329259 ] ] ] } },
{ "type": "Feature", "properties": { "Importanci": null, "Sentido": null, "Nombre": "Marcos Graña" }, "geometry": { "type": "MultiLineString", "coordinates": [ [ [ -68.7809899, -32.9265621 ], [ -68.781117002484663, -32.927373278908064 ] ] ] } },
{ "type": "Feature", "properties": { "Importanci": null, "Sentido": null, "Nombre": "Hilario Ascasubi" }, "geometry": { "type": "MultiLineString", "coordinates": [ [ [ -68.7787686, -32.9174857 ], [ -68.7789837, -32.9178669 ], [ -68.7793431, -32.9185124 ] ] ] } },
{ "type": "Feature", "properties": { "Importanci": null, "Sentido": null, "Nombre": "Heroes de Malvinas" }, "geometry": { "type": "MultiLineString", "coordinates": [ [ [ -68.7860667, -32.9259386 ], [ -68.786167032374522, -32.926720073710179 ] ] ] } },
{ "type": "Feature", "properties": { "Importanci": null, "Sentido": null, "Nombre": null }, "geometry": { "type": "MultiLineString", "coordinates": [ [ [ -68.7804241, -32.9175424 ], [ -68.7789837, -32.9178669 ] ] ] } },
{ "type": "Feature", "properties": { "Importanci": null, "Sentido": null, "Nombre": null }, "geometry": { "type": "MultiLineString", "coordinates": [ [ [ -68.780405730669145, -32.919868152259795 ], [ -68.7815111, -32.9196699 ] ] ] } },
{ "type": "Feature", "properties": { "Importanci": null, "Sentido": null, "Nombre": "Capitán Giachino" }, "geometry": { "type": "MultiLineString", "coordinates": [ [ [ -68.784531107198958, -32.924907930817497 ], [ -68.7844163, -32.9239633 ], [ -68.7837455, -32.9228357 ], [ -68.7831069, -32.9217917 ] ] ] } },
{ "type": "Feature", "properties": { "Importanci": null, "Sentido": null, "Nombre": "Cambranes" }, "geometry": { "type": "MultiLineString", "coordinates": [ [ [ -68.78147642122822, -32.909675910890599 ], [ -68.7819026, -32.9110261 ], [ -68.782274388166698, -32.912322874140457 ], [ -68.782289450027477, -32.912377010433381 ] ] ] } },
{ "type": "Feature", "properties": { "Importanci": null, "Sentido": null, "Nombre": "Juan Gualberto Godoy" }, "geometry": { "type": "MultiLineString", "coordinates": [ [ [ -68.780474315963986, -32.912747380047428 ], [ -68.7808551, -32.9126662 ], [ -68.7814138, -32.9125543 ], [ -68.7818821, -32.9124604 ], [ -68.7823016, -32.9123764 ], [ -68.782825166678151, -32.912273835764935 ] ] ] } },
{ "type": "Feature", "properties": { "Importanci": null, "Sentido": null, "Nombre": "Rí­o Salado" }, "geometry": { "type": "MultiLineString", "coordinates": [ [ [ -68.782840790649232, -32.924788524749907 ], [ -68.781189, -32.924906 ], [ -68.779455973597933, -32.925002753168144 ] ] ] } },
{ "type": "Feature", "properties": { "Importanci": null, "Sentido": null, "Nombre": null }, "geometry": { "type": "MultiLineString", "coordinates": [ [ [ -68.7821883, -32.9105011 ], [ -68.782577, -32.9103737 ], [ -68.7828086, -32.9103237 ], [ -68.7831622, -32.910301 ], [ -68.7835382, -32.9103012 ], [ -68.7837377, -32.9102731 ], [ -68.784199, -32.9101695 ] ] ] } },
{ "type": "Feature", "properties": { "Importanci": null, "Sentido": null, "Nombre": null }, "geometry": { "type": "MultiLineString", "coordinates": [ [ [ -68.7829265, -32.9088025 ], [ -68.7829588, -32.9090928 ], [ -68.7830584, -32.9097012 ], [ -68.783153148804828, -32.910273231776905 ] ] ] } },
{ "type": "Feature", "properties": { "Importanci": null, "Sentido": null, "Nombre": null }, "geometry": { "type": "MultiLineString", "coordinates": [ [ [ -68.78301089444173, -32.908622331256076 ], [ -68.7829265, -32.9088025 ] ] ] } },
{ "type": "Feature", "properties": { "Importanci": null, "Sentido": null, "Nombre": null }, "geometry": { "type": "MultiLineString", "coordinates": [ [ [ -68.7819973, -32.9099424 ], [ -68.7822424, -32.9098421 ], [ -68.782549, -32.9097624 ], [ -68.7830584, -32.9097012 ], [ -68.7835104, -32.9097009 ], [ -68.7836689, -32.9096739 ], [ -68.7839093, -32.9096158 ] ] ] } },
{ "type": "Feature", "properties": { "Importanci": null, "Sentido": null, "Nombre": null }, "geometry": { "type": "MultiLineString", "coordinates": [ [ [ -68.7869006, -32.9197423 ], [ -68.7867832, -32.9188154 ], [ -68.7867613, -32.9187832 ], [ -68.7863792, -32.9186519 ], [ -68.7863579, -32.9186277 ], [ -68.7863473, -32.9185961 ] ] ] } },
{ "type": "Feature", "properties": { "Importanci": null, "Sentido": null, "Nombre": null }, "geometry": { "type": "MultiLineString", "coordinates": [ [ [ -68.7727567, -32.9199417 ], [ -68.7758496, -32.9194817 ], [ -68.7760312, -32.9194547 ] ] ] } },
{ "type": "Feature", "properties": { "Importanci": null, "Sentido": null, "Nombre": null }, "geometry": { "type": "MultiLineString", "coordinates": [ [ [ -68.7819758, -32.9093542 ], [ -68.782336, -32.9091861 ], [ -68.7824471, -32.9091524 ], [ -68.7826195, -32.9091212 ], [ -68.7829588, -32.9090928 ], [ -68.7832402, -32.909074 ], [ -68.7836518, -32.9090033 ] ] ] } },
{ "type": "Feature", "properties": { "Importanci": null, "Sentido": null, "Nombre": null }, "geometry": { "type": "MultiLineString", "coordinates": [ [ [ -68.7844256, -32.9187232 ], [ -68.7844256, -32.9185081 ], [ -68.784363749124694, -32.917788940472562 ] ] ] } },
{ "type": "Feature", "properties": { "Importanci": null, "Sentido": null, "Nombre": null }, "geometry": { "type": "MultiLineString", "coordinates": [ [ [ -68.7829265, -32.9088025 ], [ -68.782864456126774, -32.908643406775866 ] ] ] } },
{ "type": "Feature", "properties": { "Importanci": null, "Sentido": null, "Nombre": null }, "geometry": { "type": "MultiLineString", "coordinates": [ [ [ -68.7775632, -32.9182485 ], [ -68.7757272, -32.9185761 ], [ -68.7754822, -32.9186198 ] ] ] } },
{ "type": "Feature", "properties": { "Importanci": null, "Sentido": null, "Nombre": null }, "geometry": { "type": "MultiLineString", "coordinates": [ [ [ -68.7856955, -32.918643 ], [ -68.7857108, -32.918521 ], [ -68.785648222344392, -32.917694110391857 ] ] ] } },
{ "type": "Feature", "properties": { "Importanci": null, "Sentido": null, "Nombre": null }, "geometry": { "type": "MultiLineString", "coordinates": [ [ [ -68.7851141, -32.9186815 ], [ -68.7850835, -32.9185595 ], [ -68.78499552585491, -32.917736257106938 ] ] ] } },
{ "type": "Feature", "properties": { "Importanci": null, "Sentido": null, "Nombre": "Rí­o Deseado" }, "geometry": { "type": "MultiLineString", "coordinates": [ [ [ -68.78159397299622, -32.925821030712576 ], [ -68.783338680920053, -32.925673530598452 ] ] ] } },
{ "type": "Feature", "properties": { "Importanci": null, "Sentido": null, "Nombre": null }, "geometry": { "type": "MultiLineString", "coordinates": [ [ [ -68.7770911, -32.9309195 ], [ -68.778671887135786, -32.930497663067463 ] ] ] } },
{ "type": "Feature", "properties": { "Importanci": null, "Sentido": null, "Nombre": null }, "geometry": { "type": "MultiLineString", "coordinates": [ [ [ -68.7767478, -32.9303071 ], [ -68.778312067276644, -32.929921739291515 ] ] ] } },
{ "type": "Feature", "properties": { "Importanci": null, "Sentido": null, "Nombre": null }, "geometry": { "type": "MultiLineString", "coordinates": [ [ [ -68.7712051, -32.930978 ], [ -68.774517745942049, -32.930070329740438 ] ] ] } },
{ "type": "Feature", "properties": { "Importanci": null, "Sentido": null, "Nombre": null }, "geometry": { "type": "MultiLineString", "coordinates": [ [ [ -68.7802001, -32.9360899 ], [ -68.7789337, -32.9332388 ] ] ] } },
{ "type": "Feature", "properties": { "Importanci": null, "Sentido": null, "Nombre": "FC Belgrano" }, "geometry": { "type": "MultiLineString", "coordinates": [ [ [ -68.778493970809762, -32.909391916906912 ], [ -68.7804546, -32.9133453 ], [ -68.7811024, -32.9147602 ], [ -68.7828707, -32.917838 ], [ -68.7850739, -32.921678 ], [ -68.7876935, -32.9261313 ], [ -68.7879425, -32.9266516 ], [ -68.7903389, -32.9304645 ], [ -68.7921296, -32.9332898 ] ] ] } },
{ "type": "Feature", "properties": { "Importanci": null, "Sentido": null, "Nombre": null }, "geometry": { "type": "MultiLineString", "coordinates": [ [ [ -68.7928443, -32.9327674 ], [ -68.7935035, -32.9326072 ] ] ] } },
{ "type": "Feature", "properties": { "Importanci": null, "Sentido": null, "Nombre": null }, "geometry": { "type": "MultiLineString", "coordinates": [ [ [ -68.792924114621556, -32.933055258309516 ], [ -68.7928443, -32.9327674 ], [ -68.7926954, -32.932275 ], [ -68.7933442, -32.932115 ], [ -68.7935035, -32.9326072 ], [ -68.793585179014755, -32.932886700514615 ] ] ] } },
{ "type": "Feature", "properties": { "Importanci": null, "Sentido": null, "Nombre": null }, "geometry": { "type": "MultiLineString", "coordinates": [ [ [ -68.780467051713444, -32.90873122138764 ], [ -68.780441, -32.9086674 ], [ -68.7804396, -32.9086482 ], [ -68.7804584, -32.9086302 ], [ -68.7804919, -32.9086145 ], [ -68.7805523, -32.9086032 ], [ -68.7806904, -32.9085751 ], [ -68.7809479, -32.9085345 ], [ -68.7810177, -32.9085255 ], [ -68.7811638, -32.9085199 ], [ -68.7813436, -32.9085255 ], [ -68.781483, -32.9085379 ], [ -68.7816346, -32.9085616 ], [ -68.7816949, -32.9085661 ], [ -68.7817794, -32.9085627 ], [ -68.7818961, -32.9085537 ], [ -68.7819873, -32.9085458 ], [ -68.7820825, -32.908521 ], [ -68.7822045, -32.9084929 ], [ -68.7823105, -32.9084704 ], [ -68.7823802, -32.9084512 ], [ -68.7824285, -32.9084411 ], [ -68.7824929, -32.9084186 ], [ -68.7825653, -32.9083904 ], [ -68.7826659, -32.9083454 ], [ -68.7827075, -32.9083217 ], [ -68.7827544, -32.9083048 ], [ -68.7828107, -32.9082992 ], [ -68.7828697, -32.9082981 ], [ -68.7829381, -32.9083037 ], [ -68.7830468, -32.9083116 ], [ -68.783142, -32.9083116 ], [ -68.7832707, -32.9083105 ], [ -68.7833606, -32.9083116 ], [ -68.7833995, -32.9083195 ], [ -68.7834249, -32.908351 ], [ -68.7834705, -32.9084073 ], [ -68.7835228, -32.9084501 ], [ -68.7835725, -32.9084625 ], [ -68.7836476, -32.9084704 ], [ -68.7837066, -32.9084704 ], [ -68.7837213, -32.9084704 ], [ -68.7837388, -32.9084625 ], [ -68.7837713, -32.9084509 ] ] ] } },
{ "type": "Feature", "properties": { "Importanci": null, "Sentido": null, "Nombre": null }, "geometry": { "type": "MultiLineString", "coordinates": [ [ [ -68.7654968, -32.920359 ], [ -68.7656677, -32.9204879 ], [ -68.7659712, -32.9202612 ], [ -68.7658448, -32.9200883 ] ] ] } },
{ "type": "Feature", "properties": { "Importanci": null, "Sentido": null, "Nombre": null }, "geometry": { "type": "MultiLineString", "coordinates": [ [ [ -68.7665185, -32.9217997 ], [ -68.7665813, -32.9220531 ], [ -68.7669509, -32.9232908 ], [ -68.7689288, -32.9228717 ], [ -68.7684308, -32.9212752 ], [ -68.7667711, -32.9216755 ], [ -68.7665122, -32.9217814 ] ] ] } },
{ "type": "Feature", "properties": { "Importanci": null, "Sentido": null, "Nombre": null }, "geometry": { "type": "MultiLineString", "coordinates": [ [ [ -68.785827, -32.9170391 ], [ -68.7859503, -32.9172494 ], [ -68.7859854, -32.9173103 ], [ -68.7860884, -32.9174877 ] ] ] } },
{ "type": "Feature", "properties": { "Importanci": null, "Sentido": null, "Nombre": null }, "geometry": { "type": "MultiLineString", "coordinates": [ [ [ -68.788351055243197, -32.916879269955466 ], [ -68.7882248, -32.9169038 ], [ -68.7874566, -32.9170331 ], [ -68.7867357, -32.9171353 ], [ -68.786039944836858, -32.917233129385458 ] ] ] } },
{ "type": "Feature", "properties": { "Importanci": null, "Sentido": null, "Nombre": null }, "geometry": { "type": "MultiLineString", "coordinates": [ [ [ -68.788397078713615, -32.916942490602594 ], [ -68.7882467, -32.916975 ], [ -68.7874723, -32.917094 ], [ -68.7867508, -32.9172005 ], [ -68.786056680644279, -32.917296349779818 ] ] ] } },
{ "type": "Feature", "properties": { "Importanci": null, "Sentido": null, "Nombre": null }, "geometry": { "type": "MultiLineString", "coordinates": [ [ [ -68.7867357, -32.9171353 ], [ -68.7867508, -32.9172005 ] ] ] } },
{ "type": "Feature", "properties": { "Importanci": null, "Sentido": null, "Nombre": null }, "geometry": { "type": "MultiLineString", "coordinates": [ [ [ -68.7874566, -32.9170331 ], [ -68.7874723, -32.917094 ] ] ] } },
{ "type": "Feature", "properties": { "Importanci": null, "Sentido": null, "Nombre": null }, "geometry": { "type": "MultiLineString", "coordinates": [ [ [ -68.7882467, -32.916975 ], [ -68.7882248, -32.9169038 ] ] ] } },
{ "type": "Feature", "properties": { "Importanci": null, "Sentido": null, "Nombre": null }, "geometry": { "type": "MultiLineString", "coordinates": [ [ [ -68.7837826, -32.9187915 ], [ -68.783259, -32.9178724 ] ] ] } },
{ "type": "Feature", "properties": { "Importanci": null, "Sentido": null, "Nombre": null }, "geometry": { "type": "MultiLineString", "coordinates": [ [ [ -68.7874928, -32.9196886 ], [ -68.787401, -32.9188192 ] ] ] } },
{ "type": "Feature", "properties": { "Importanci": null, "Sentido": null, "Nombre": null }, "geometry": { "type": "MultiLineString", "coordinates": [ [ [ -68.7881247, -32.9196231 ], [ -68.7880303, -32.9187722 ] ] ] } },
{ "type": "Feature", "properties": { "Importanci": null, "Sentido": null, "Nombre": null }, "geometry": { "type": "MultiLineString", "coordinates": [ [ [ -68.7900476, -32.9194748 ], [ -68.7887903, -32.9195582 ], [ -68.7881247, -32.9196231 ], [ -68.7874928, -32.9196886 ], [ -68.7869006, -32.9197423 ], [ -68.786229, -32.9197988 ], [ -68.7855987, -32.9198518 ], [ -68.7849505, -32.9199143 ], [ -68.7843981, -32.9199675 ], [ -68.7838111, -32.91892 ] ] ] } },
{ "type": "Feature", "properties": { "Importanci": null, "Sentido": null, "Nombre": null }, "geometry": { "type": "MultiLineString", "coordinates": [ [ [ -68.7886877, -32.9187034 ], [ -68.788786186236194, -32.919520449635932 ] ] ] } },
{ "type": "Feature", "properties": { "Importanci": null, "Sentido": null, "Nombre": null }, "geometry": { "type": "MultiLineString", "coordinates": [ [ [ -68.772241153141437, -32.92562062900398 ], [ -68.7715645, -32.9258782 ], [ -68.7707292, -32.9261831 ], [ -68.7701478, -32.9263954 ], [ -68.7696552, -32.9265737 ], [ -68.7691035, -32.9267735 ], [ -68.769123013994928, -32.926764133249421 ] ] ] } },
{ "type": "Feature", "properties": { "Importanci": null, "Sentido": null, "Nombre": null }, "geometry": { "type": "MultiLineString", "coordinates": [ [ [ -68.769072806572723, -32.9266868721392 ], [ -68.7690621, -32.9267025 ], [ -68.7696143, -32.9265041 ], [ -68.7701075, -32.9263269 ], [ -68.7706928, -32.926116 ], [ -68.7715281, -32.9258151 ], [ -68.772199313622934, -32.925567950300781 ] ] ] } },
{ "type": "Feature", "properties": { "Importanci": null, "Sentido": null, "Nombre": null }, "geometry": { "type": "MultiLineString", "coordinates": [ [ [ -68.767817621017812, -32.925682471566844 ], [ -68.7682945, -32.9254995 ], [ -68.7683628, -32.9254721 ], [ -68.7689076, -32.9252544 ], [ -68.7693813, -32.9250643 ] ] ] } },
{ "type": "Feature", "properties": { "Importanci": null, "Sentido": null, "Nombre": "Rí­o Deseado" }, "geometry": { "type": "MultiLineString", "coordinates": [ [ [ -68.771952460463751, -32.925111400225795 ], [ -68.7705866, -32.9255999 ], [ -68.7698483, -32.9258724 ] ] ] } },
{ "type": "Feature", "properties": { "Importanci": null, "Sentido": null, "Nombre": null }, "geometry": { "type": "MultiLineString", "coordinates": [ [ [ -68.7693813, -32.9250643 ], [ -68.7698483, -32.9258724 ], [ -68.770061056313807, -32.926253951376175 ] ] ] } },
{ "type": "Feature", "properties": { "Importanci": null, "Sentido": null, "Nombre": "Los Crisantemos" }, "geometry": { "type": "MultiLineString", "coordinates": [ [ [ -68.767819, -32.9233548 ], [ -68.7678623, -32.9234967 ], [ -68.7679345, -32.9235412 ], [ -68.7689076, -32.9252544 ], [ -68.769563667609461, -32.926416875556519 ] ] ] } },
{ "type": "Feature", "properties": { "Importanci": null, "Sentido": null, "Nombre": "Río Salado" }, "geometry": { "type": "MultiLineString", "coordinates": [ [ [ -68.772471270493256, -32.926178143357234 ], [ -68.7693851, -32.9272647 ], [ -68.7693101, -32.9272927 ], [ -68.768683225086491, -32.927522528676626 ] ] ] } },
{ "type": "Feature", "properties": { "Importanci": null, "Sentido": null, "Nombre": "Los Ceibos" }, "geometry": { "type": "MultiLineString", "coordinates": [ [ [ -68.7673921413149, -32.923759137395521 ], [ -68.7683628, -32.9254721 ], [ -68.7688783, -32.9263884 ], [ -68.7690621, -32.9267025 ], [ -68.7691035, -32.9267735 ], [ -68.7693851, -32.9272647 ], [ -68.7697066, -32.9278266 ], [ -68.7699831, -32.9283098 ], [ -68.7702392, -32.9287583 ], [ -68.770436774875733, -32.929138123566538 ] ] ] } },
{ "type": "Feature", "properties": { "Importanci": null, "Sentido": null, "Nombre": "Los Ceibos" }, "geometry": { "type": "MultiLineString", "coordinates": [ [ [ -68.770353095838743, -32.929145147112024 ], [ -68.7701615, -32.9287922 ], [ -68.7699051, -32.9283401 ], [ -68.7696304, -32.9278566 ], [ -68.7693101, -32.9272927 ], [ -68.7690315, -32.9267993 ], [ -68.7689911, -32.9267281 ], [ -68.7688149, -32.9264173 ], [ -68.7682945, -32.9254995 ], [ -68.767307221292185, -32.923779503508698 ] ] ] } },
{ "type": "Feature", "properties": { "Importanci": null, "Sentido": null, "Nombre": null }, "geometry": { "type": "MultiLineString", "coordinates": [ [ [ -68.7785052, -32.9103512 ], [ -68.7782293, -32.9097949 ], [ -68.7778549, -32.9100162 ], [ -68.7780791, -32.9105022 ], [ -68.7785052, -32.9103512 ] ] ] } },
{ "type": "Feature", "properties": { "Importanci": null, "Sentido": null, "Nombre": null }, "geometry": { "type": "MultiLineString", "coordinates": [ [ [ -68.785976441093894, -32.913165366750619 ], [ -68.7836795, -32.913636 ] ] ] } },
{ "type": "Feature", "properties": { "Importanci": null, "Sentido": null, "Nombre": null }, "geometry": { "type": "MultiLineString", "coordinates": [ [ [ -68.784157166501771, -32.914128250006939 ], [ -68.78460248544863, -32.914940465507136 ] ] ] } },
{ "type": "Feature", "properties": { "Importanci": null, "Sentido": null, "Nombre": null }, "geometry": { "type": "MultiLineString", "coordinates": [ [ [ -68.763945385756131, -32.928320398279126 ], [ -68.7629874, -32.9286047 ], [ -68.7626709, -32.928231 ] ] ] } },
{ "type": "Feature", "properties": { "Importanci": null, "Sentido": null, "Nombre": null }, "geometry": { "type": "MultiLineString", "coordinates": [ [ [ -68.771271166637177, -32.923873696721216 ], [ -68.7694047, -32.92426 ] ] ] } },
{ "type": "Feature", "properties": { "Importanci": null, "Sentido": null, "Nombre": null }, "geometry": { "type": "MultiLineString", "coordinates": [ [ [ -68.773801767181737, -32.928762856916109 ], [ -68.770342, -32.9297844 ] ] ] } },
{ "type": "Feature", "properties": { "Importanci": null, "Sentido": null, "Nombre": null }, "geometry": { "type": "MultiLineString", "coordinates": [ [ [ -68.77893019150028, -32.927013367035272 ], [ -68.779428092857984, -32.927920619777652 ] ] ] } },
{ "type": "Feature", "properties": { "Importanci": null, "Sentido": null, "Nombre": null }, "geometry": { "type": "MultiLineString", "coordinates": [ [ [ -68.775324725655338, -32.930890974711019 ], [ -68.7763501, -32.9306174 ] ] ] } },
{ "type": "Feature", "properties": { "Importanci": null, "Sentido": null, "Nombre": "Cordón del Plata" }, "geometry": { "type": "MultiLineString", "coordinates": [ [ [ -68.7816456, -32.9288633 ], [ -68.7834434, -32.928564 ], [ -68.7841097, -32.928453 ], [ -68.7846645, -32.9283606 ], [ -68.7852195, -32.9282682 ], [ -68.7858465, -32.9281638 ], [ -68.7858744, -32.9281592 ], [ -68.7859919, -32.9281396 ] ] ] } },
{ "type": "Feature", "properties": { "Importanci": null, "Sentido": null, "Nombre": null }, "geometry": { "type": "MultiLineString", "coordinates": [ [ [ -68.791505754942449, -32.923671719022146 ], [ -68.7917385, -32.9240797 ] ] ] } },
{ "type": "Feature", "properties": { "Importanci": null, "Sentido": null, "Nombre": null }, "geometry": { "type": "MultiLineString", "coordinates": [ [ [ -68.7728091, -32.914578 ], [ -68.7729153, -32.9148564 ] ] ] } },
{ "type": "Feature", "properties": { "Importanci": null, "Sentido": null, "Nombre": null }, "geometry": { "type": "MultiLineString", "coordinates": [ [ [ -68.7716314, -32.9166097 ], [ -68.7713693, -32.9157233 ] ] ] } },
{ "type": "Feature", "properties": { "Importanci": null, "Sentido": null, "Nombre": "Chacabuco" }, "geometry": { "type": "MultiLineString", "coordinates": [ [ [ -68.762831400860804, -32.922476992428784 ], [ -68.7637501, -32.9241996 ] ] ] } },
{ "type": "Feature", "properties": { "Importanci": null, "Sentido": null, "Nombre": null }, "geometry": { "type": "MultiLineString", "coordinates": [ [ [ -68.75975, -32.9254501 ], [ -68.7598101, -32.9254501 ], [ -68.7598668, -32.9254649 ], [ -68.7598986, -32.9254842 ], [ -68.7599253, -32.92551 ], [ -68.7599376, -32.9255615 ], [ -68.7599539, -32.925645 ] ] ] } },
{ "type": "Feature", "properties": { "Importanci": null, "Sentido": null, "Nombre": "Cambranes" }, "geometry": { "type": "MultiLineString", "coordinates": [ [ [ -68.7817744, -32.9095905 ], [ -68.7816018, -32.9091755 ], [ -68.781420992736543, -32.908724196221904 ] ] ] } },
{ "type": "Feature", "properties": { "Importanci": null, "Sentido": null, "Nombre": null }, "geometry": { "type": "MultiLineString", "coordinates": [ [ [ -68.7601063, -32.924866 ], [ -68.76029419462499, -32.924915385439064 ] ] ] } },
{ "type": "Feature", "properties": { "Importanci": null, "Sentido": null, "Nombre": null }, "geometry": { "type": "MultiLineString", "coordinates": [ [ [ -68.7593685, -32.9250059 ], [ -68.759405, -32.925023 ], [ -68.7594376, -32.9250281 ], [ -68.7594803, -32.925023 ], [ -68.7599458, -32.9248592 ], [ -68.7600088, -32.9248455 ], [ -68.7600738, -32.9248558 ], [ -68.7601063, -32.924866 ] ] ] } },
{ "type": "Feature", "properties": { "Importanci": null, "Sentido": null, "Nombre": null }, "geometry": { "type": "MultiLineString", "coordinates": [ [ [ -68.7690902, -32.9192972 ], [ -68.769138, -32.9193923 ], [ -68.7691698, -32.9194205 ], [ -68.7692265, -32.9194458 ], [ -68.7692937, -32.9194591 ], [ -68.7693344, -32.9194755 ], [ -68.7693574, -32.9195111 ], [ -68.7707969, -32.922624 ] ] ] } },
{ "type": "Feature", "properties": { "Importanci": null, "Sentido": null, "Nombre": null }, "geometry": { "type": "MultiLineString", "coordinates": [ [ [ -68.786751654600181, -32.914427251342957 ], [ -68.784621393095122, -32.914935174654637 ] ] ] } },
{ "type": "Feature", "properties": { "Importanci": null, "Sentido": null, "Nombre": null }, "geometry": { "type": "MultiLineString", "coordinates": [ [ [ -68.786221423748628, -32.919773324406947 ], [ -68.7861022, -32.9188336 ] ] ] } },
{ "type": "Feature", "properties": { "Importanci": null, "Sentido": null, "Nombre": null }, "geometry": { "type": "MultiLineString", "coordinates": [ [ [ -68.785593830970271, -32.919818982274705 ], [ -68.7854969, -32.9190551 ] ] ] } },
{ "type": "Feature", "properties": { "Importanci": null, "Sentido": null, "Nombre": null }, "geometry": { "type": "MultiLineString", "coordinates": [ [ [ -68.788903336888183, -32.9214837222885 ], [ -68.7889634, -32.9215734 ], [ -68.7894956, -32.9223621 ] ] ] } },
{ "type": "Feature", "properties": { "Importanci": null, "Sentido": null, "Nombre": null }, "geometry": { "type": "MultiLineString", "coordinates": [ [ [ -68.783062540097575, -32.925181861775442 ], [ -68.781451718633122, -32.925322338860809 ] ] ] } },
{ "type": "Feature", "properties": { "Importanci": null, "Sentido": null, "Nombre": null }, "geometry": { "type": "MultiLineString", "coordinates": [ [ [ -68.7883261, -32.9273533 ], [ -68.7862839, -32.9277333 ] ] ] } },
{ "type": "Feature", "properties": { "Importanci": null, "Sentido": null, "Nombre": "Los Cardos" }, "geometry": { "type": "MultiLineString", "coordinates": [ [ [ -68.782075, -32.9295949 ], [ -68.7828139, -32.9294541 ], [ -68.7845025, -32.9291323 ], [ -68.7861132, -32.9288253 ] ] ] } },
{ "type": "Feature", "properties": { "Importanci": null, "Sentido": null, "Nombre": "Los Alamos" }, "geometry": { "type": "MultiLineString", "coordinates": [ [ [ -68.78671426880679, -32.929862755513703 ], [ -68.785147, -32.9302489 ], [ -68.7840561, -32.9305178 ], [ -68.784047138562158, -32.930514633045263 ] ] ] } },
{ "type": "Feature", "properties": { "Importanci": null, "Sentido": null, "Nombre": "Los Naranjos" }, "geometry": { "type": "MultiLineString", "coordinates": [ [ [ -68.7864175, -32.9293499 ], [ -68.7848308, -32.9296993 ], [ -68.7837966, -32.9299298 ], [ -68.7824445, -32.9302248 ] ] ] } },
{ "type": "Feature", "properties": { "Importanci": null, "Sentido": null, "Nombre": "Hilario Ascasubi" }, "geometry": { "type": "MultiLineString", "coordinates": [ [ [ -68.785292, -32.9304905 ], [ -68.785147, -32.9302489 ], [ -68.7848308, -32.9296993 ], [ -68.7845025, -32.9291323 ], [ -68.7841097, -32.928453 ], [ -68.7838431, -32.9280244 ] ] ] } },
{ "type": "Feature", "properties": { "Importanci": null, "Sentido": null, "Nombre": null }, "geometry": { "type": "MultiLineString", "coordinates": [ [ [ -68.778552239997097, -32.923657671061591 ], [ -68.7775188, -32.923727 ], [ -68.7761644, -32.9238114 ], [ -68.7750194, -32.9238827 ], [ -68.7745876, -32.9239148 ] ] ] } },
{ "type": "Feature", "properties": { "Importanci": null, "Sentido": null, "Nombre": null }, "geometry": { "type": "MultiLineString", "coordinates": [ [ [ -68.777935511610096, -32.929268552910443 ], [ -68.777808898034905, -32.929299664971452 ], [ -68.7761609, -32.9296988 ] ] ] } },
{ "type": "Feature", "properties": { "Importanci": null, "Sentido": null, "Nombre": null }, "geometry": { "type": "MultiLineString", "coordinates": [ [ [ -68.7759092, -32.9254721 ], [ -68.7750194, -32.9238827 ] ] ] } },
{ "type": "Feature", "properties": { "Importanci": null, "Sentido": null, "Nombre": null }, "geometry": { "type": "MultiLineString", "coordinates": [ [ [ -68.771524602356664, -32.927831734410347 ], [ -68.771708, -32.9282302 ], [ -68.771917893830533, -32.928639450412376 ] ] ] } },
{ "type": "Feature", "properties": { "Importanci": null, "Sentido": null, "Nombre": null }, "geometry": { "type": "MultiLineString", "coordinates": [ [ [ -68.762322, -32.9276958 ], [ -68.7619155, -32.92716 ], [ -68.762875038050495, -32.926870699177954 ] ] ] } },
{ "type": "Feature", "properties": { "Importanci": null, "Sentido": null, "Nombre": null }, "geometry": { "type": "MultiLineString", "coordinates": [ [ [ -68.772766762092644, -32.926156413532844 ], [ -68.7739574, -32.9260885 ] ] ] } },
{ "type": "Feature", "properties": { "Importanci": null, "Sentido": null, "Nombre": null }, "geometry": { "type": "MultiLineString", "coordinates": [ [ [ -68.773036626986951, -32.92722577795162 ], [ -68.7714852, -32.9277752 ], [ -68.7699831, -32.9283098 ], [ -68.7699051, -32.9283401 ], [ -68.7693553, -32.9285454 ], [ -68.7698513, -32.9294258 ], [ -68.7704086, -32.9292281 ], [ -68.7704921, -32.9292013 ], [ -68.7719529, -32.928706 ], [ -68.77353870120902, -32.928159924797853 ] ] ] } },
{ "type": "Feature", "properties": { "Importanci": null, "Sentido": null, "Nombre": "Hilario Ascasubi" }, "geometry": { "type": "MultiLineString", "coordinates": [ [ [ -68.773155869614754, -32.926995751556909 ], [ -68.7743721, -32.9268051 ] ] ] } },
{ "type": "Feature", "properties": { "Importanci": null, "Sentido": null, "Nombre": null }, "geometry": { "type": "MultiLineString", "coordinates": [ [ [ -68.772802325683315, -32.926698999065025 ], [ -68.7724752, -32.9268075 ], [ -68.7718559, -32.9270375 ], [ -68.7712599, -32.9272589 ], [ -68.7706888, -32.9274711 ], [ -68.7700877, -32.9276944 ], [ -68.7700342, -32.9276173 ], [ -68.7706477, -32.9273866 ], [ -68.7712209, -32.927171 ], [ -68.7718097, -32.9269496 ], [ -68.7724226, -32.9267192 ], [ -68.772735382453703, -32.926614714152109 ] ] ] } },
{ "type": "Feature", "properties": { "Importanci": null, "Sentido": null, "Nombre": null }, "geometry": { "type": "MultiLineString", "coordinates": [ [ [ -68.7760312, -32.9194547 ], [ -68.7780784, -32.9190816 ] ] ] } },
{ "type": "Feature", "properties": { "Importanci": null, "Sentido": null, "Nombre": null }, "geometry": { "type": "MultiLineString", "coordinates": [ [ [ -68.7813909, -32.9284292 ], [ -68.7824275, -32.9282689 ] ] ] } },
{ "type": "Feature", "properties": { "Importanci": null, "Sentido": null, "Nombre": null }, "geometry": { "type": "MultiLineString", "coordinates": [ [ [ -68.7849977, -32.9278675 ], [ -68.7852195, -32.9282682 ], [ -68.7854151, -32.9286218 ] ] ] } },
{ "type": "Feature", "properties": { "Importanci": null, "Sentido": null, "Nombre": null }, "geometry": { "type": "MultiLineString", "coordinates": [ [ [ -68.783466695956562, -32.928622385293572 ], [ -68.7836541, -32.9289979 ] ] ] } },
{ "type": "Feature", "properties": { "Importanci": null, "Sentido": null, "Nombre": null }, "geometry": { "type": "MultiLineString", "coordinates": [ [ [ -68.7829831, -32.9311425 ], [ -68.7840444, -32.9309088 ] ] ] } },
{ "type": "Feature", "properties": { "Importanci": null, "Sentido": null, "Nombre": null }, "geometry": { "type": "MultiLineString", "coordinates": [ [ [ -68.777938327877919, -32.924771645804064 ], [ -68.7767096, -32.9248513 ] ] ] } },
{ "type": "Feature", "properties": { "Importanci": null, "Sentido": null, "Nombre": null }, "geometry": { "type": "MultiLineString", "coordinates": [ [ [ -68.778429217928462, -32.92966187001867 ], [ -68.779609, -32.929288 ] ] ] } },
{ "type": "Feature", "properties": { "Importanci": null, "Sentido": null, "Nombre": null }, "geometry": { "type": "MultiLineString", "coordinates": [ [ [ -68.7647436, -32.9312627 ], [ -68.766197213690106, -32.930847314700188 ], [ -68.7697096, -32.9298169 ] ] ] } },
{ "type": "Feature", "properties": { "Importanci": null, "Sentido": null, "Nombre": null }, "geometry": { "type": "MultiLineString", "coordinates": [ [ [ -68.7660571, -32.9213019 ], [ -68.7661808, -32.9212339 ], [ -68.7662497, -32.921214 ] ] ] } },
{ "type": "Feature", "properties": { "Importanci": null, "Sentido": null, "Nombre": null }, "geometry": { "type": "MultiLineString", "coordinates": [ [ [ -68.7659809, -32.9209957 ], [ -68.7661787, -32.9210878 ], [ -68.7662497, -32.921214 ] ] ] } },
{ "type": "Feature", "properties": { "Importanci": null, "Sentido": null, "Nombre": null }, "geometry": { "type": "MultiLineString", "coordinates": [ [ [ -68.7662497, -32.921214 ], [ -68.7667651, -32.921126 ], [ -68.7667955, -32.9210665 ], [ -68.7667718, -32.920997 ], [ -68.7667076, -32.9209672 ], [ -68.7661787, -32.9210878 ], [ -68.7665887, -32.9207813 ], [ -68.7666021, -32.920725 ], [ -68.7665766, -32.92068 ], [ -68.7665096, -32.9206609 ], [ -68.7664211, -32.9206676 ], [ -68.7659809, -32.9209957 ] ] ] } },
{ "type": "Feature", "properties": { "Importanci": null, "Sentido": null, "Nombre": null }, "geometry": { "type": "MultiLineString", "coordinates": [ [ [ -68.765415, -32.9204318 ], [ -68.7659002, -32.9208996 ], [ -68.7659809, -32.9209957 ], [ -68.7661808, -32.9212339 ], [ -68.7662261, -32.9212877 ], [ -68.7664473, -32.9215911 ], [ -68.7665122, -32.9217814 ], [ -68.7665185, -32.9217997 ] ] ] } },
{ "type": "Feature", "properties": { "Importanci": null, "Sentido": null, "Nombre": null }, "geometry": { "type": "MultiLineString", "coordinates": [ [ [ -68.7665185, -32.9217997 ], [ -68.7663238, -32.921643 ], [ -68.7660571, -32.9213019 ], [ -68.7657852, -32.9209621 ], [ -68.7653062, -32.9205225 ] ] ] } },
{ "type": "Feature", "properties": { "Importanci": null, "Sentido": null, "Nombre": null }, "geometry": { "type": "MultiLineString", "coordinates": [ [ [ -68.7658069, -32.9216954 ], [ -68.7661152, -32.9221558 ], [ -68.766475, -32.9233531 ] ] ] } },
{ "type": "Feature", "properties": { "Importanci": null, "Sentido": null, "Nombre": null }, "geometry": { "type": "MultiLineString", "coordinates": [ [ [ -68.7669509, -32.9232908 ], [ -68.766558, -32.9233942 ], [ -68.7665112, -32.9233817 ], [ -68.766475, -32.9233531 ] ] ] } },
{ "type": "Feature", "properties": { "Importanci": null, "Sentido": null, "Nombre": null }, "geometry": { "type": "MultiLineString", "coordinates": [ [ [ -68.7665813, -32.9220531 ], [ -68.7661152, -32.9221558 ] ] ] } },
{ "type": "Feature", "properties": { "Importanci": null, "Sentido": null, "Nombre": null }, "geometry": { "type": "MultiLineString", "coordinates": [ [ [ -68.7719035, -32.9169345 ], [ -68.7714688, -32.9169976 ] ] ] } },
{ "type": "Feature", "properties": { "Importanci": null, "Sentido": null, "Nombre": null }, "geometry": { "type": "MultiLineString", "coordinates": [ [ [ -68.7714204, -32.9168388 ], [ -68.7714412, -32.9169066 ], [ -68.7714688, -32.9169976 ], [ -68.7715012, -32.9171045 ] ] ] } },
{ "type": "Feature", "properties": { "Importanci": null, "Sentido": null, "Nombre": null }, "geometry": { "type": "MultiLineString", "coordinates": [ [ [ -68.767813233146967, -32.932628518789365 ], [ -68.7679312, -32.9326145 ], [ -68.7697873, -32.9320742 ] ] ] } },
{ "type": "Feature", "properties": { "Importanci": null, "Sentido": null, "Nombre": "Calle 31" }, "geometry": { "type": "MultiLineString", "coordinates": [ [ [ -68.784941134480775, -32.919878688681614 ], [ -68.7848359, -32.9190522 ] ] ] } },
{ "type": "Feature", "properties": { "Importanci": null, "Sentido": null, "Nombre": null }, "geometry": { "type": "MultiLineString", "coordinates": [ [ [ -68.7863473, -32.9185961 ], [ -68.7862807, -32.9176476 ] ] ] } },
{ "type": "Feature", "properties": { "Importanci": null, "Sentido": null, "Nombre": null }, "geometry": { "type": "MultiLineString", "coordinates": [ [ [ -68.787730261386571, -32.916179449497804 ], [ -68.7867551, -32.9164164 ], [ -68.7861594, -32.9165629 ], [ -68.7855575, -32.916711 ], [ -68.7851387, -32.9159726 ], [ -68.7850485, -32.9158136 ] ] ] } },
{ "type": "Feature", "properties": { "Importanci": null, "Sentido": null, "Nombre": null }, "geometry": { "type": "MultiLineString", "coordinates": [ [ [ -68.785236626080561, -32.915954662831666 ], [ -68.7857514, -32.9158338 ], [ -68.7863485, -32.9156985 ], [ -68.786701009230057, -32.916355063683497 ] ] ] } },
{ "type": "Feature", "properties": { "Importanci": null, "Sentido": null, "Nombre": null }, "geometry": { "type": "MultiLineString", "coordinates": [ [ [ -68.786115255970259, -32.916481505681453 ], [ -68.785814011436628, -32.915919539863502 ] ] ] } },
{ "type": "Feature", "properties": { "Importanci": null, "Sentido": null, "Nombre": null }, "geometry": { "type": "MultiLineString", "coordinates": [ [ [ -68.7875404, -32.915698 ], [ -68.787621478638329, -32.915666654081392 ] ] ] } },
{ "type": "Feature", "properties": { "Importanci": null, "Sentido": null, "Nombre": null }, "geometry": { "type": "MultiLineString", "coordinates": [ [ [ -68.7768722, -32.9156556 ], [ -68.7769779, -32.916093 ] ] ] } },
{ "type": "Feature", "properties": { "Importanci": null, "Sentido": null, "Nombre": "Calle 7" }, "geometry": { "type": "MultiLineString", "coordinates": [ [ [ -68.781284193488858, -32.92045071668484 ], [ -68.7810896, -32.9201395 ] ] ] } },
{ "type": "Feature", "properties": { "Importanci": null, "Sentido": null, "Nombre": null }, "geometry": { "type": "MultiLineString", "coordinates": [ [ [ -68.78227595714867, -32.919520449635932 ], [ -68.782186, -32.9193703 ] ] ] } },
{ "type": "Feature", "properties": { "Importanci": null, "Sentido": null, "Nombre": null }, "geometry": { "type": "MultiLineString", "coordinates": [ [ [ -68.7887947, -32.9219057 ], [ -68.788564436787865, -32.921515330973158 ] ] ] } },
{ "type": "Feature", "properties": { "Importanci": null, "Sentido": null, "Nombre": null }, "geometry": { "type": "MultiLineString", "coordinates": [ [ [ -68.7849002, -32.9287888 ], [ -68.7846645, -32.9283606 ], [ -68.7844326, -32.9279391 ] ] ] } },
{ "type": "Feature", "properties": { "Importanci": null, "Sentido": null, "Nombre": null }, "geometry": { "type": "MultiLineString", "coordinates": [ [ [ -68.7768631, -32.9274252 ], [ -68.7765822, -32.9267584 ] ] ] } },
{ "type": "Feature", "properties": { "Importanci": null, "Sentido": null, "Nombre": null }, "geometry": { "type": "MultiLineString", "coordinates": [ [ [ -68.7854181, -32.9216597 ], [ -68.78552, -32.9220215 ], [ -68.7856996, -32.9223236 ], [ -68.7867766, -32.9241348 ], [ -68.786856, -32.9241755 ], [ -68.7874292, -32.9240201 ], [ -68.7863269, -32.9220992 ], [ -68.7862695, -32.9220696 ], [ -68.7859565, -32.9220844 ], [ -68.7858992, -32.9221103 ], [ -68.7856996, -32.9223236 ] ] ] } },
{ "type": "Feature", "properties": { "Importanci": null, "Sentido": null, "Nombre": null }, "geometry": { "type": "MultiLineString", "coordinates": [ [ [ -68.7753967, -32.9221867 ], [ -68.7753919, -32.9223065 ], [ -68.7754521, -32.9223914 ], [ -68.7754889, -32.9224434 ], [ -68.7759034, -32.9233354 ], [ -68.7758681, -32.9233872 ], [ -68.7758064, -32.9233835 ], [ -68.7757491, -32.9233391 ], [ -68.7753522, -32.9224545 ], [ -68.7753322, -32.9223989 ], [ -68.7752949, -32.9222954 ], [ -68.7752993, -32.9221913 ] ] ] } },
{ "type": "Feature", "properties": { "Importanci": null, "Sentido": null, "Nombre": null }, "geometry": { "type": "MultiLineString", "coordinates": [ [ [ -68.7761544, -32.9223475 ], [ -68.776578, -32.9233021 ] ] ] } },
{ "type": "Feature", "properties": { "Importanci": null, "Sentido": null, "Nombre": null }, "geometry": { "type": "MultiLineString", "coordinates": [ [ [ -68.7746581, -32.9224411 ], [ -68.77507, -32.9233872 ] ] ] } },
{ "type": "Feature", "properties": { "Importanci": null, "Sentido": null, "Nombre": "Chambouleiron" }, "geometry": { "type": "MultiLineString", "coordinates": [ [ [ -68.780592439520674, -32.913355525544006 ], [ -68.7812091, -32.9147367 ] ] ] } },
{ "type": "Feature", "properties": { "Importanci": null, "Sentido": null, "Nombre": "Castro" }, "geometry": { "type": "MultiLineString", "coordinates": [ [ [ -68.786256904516918, -32.91358864241343 ], [ -68.7841272, -32.9140743 ], [ -68.783405001170635, -32.914236779349665 ] ] ] } },
{ "type": "Feature", "properties": { "Importanci": null, "Sentido": null, "Nombre": "9 de Julio" }, "geometry": { "type": "MultiLineString", "coordinates": [ [ [ -68.774048, -32.9162793 ], [ -68.7754822, -32.9186198 ], [ -68.7760312, -32.9194547 ], [ -68.776853, -32.9208008 ], [ -68.77769034591482, -32.922031604557567 ] ] ] } },
{ "type": "Feature", "properties": { "Importanci": "Limite", "Sentido": null, "Nombre": "San Francisco del Monte" }, "geometry": { "type": "MultiLineString", "coordinates": [ [ [ -68.79604365521935, -32.929163199816657 ], [ -68.7903389, -32.9304645 ], [ -68.790198, -32.9304859 ], [ -68.7868437, -32.9313134 ], [ -68.7854628, -32.9316541 ], [ -68.783992131617268, -32.932023316192634 ] ] ] } },
{ "type": "Feature", "properties": { "Importanci": "Limite", "Sentido": null, "Nombre": "Elpidio González" }, "geometry": { "type": "MultiLineString", "coordinates": [ [ [ -68.79103715233461, -32.921301094111669 ], [ -68.7888767, -32.9214448 ], [ -68.788541, -32.9214693 ], [ -68.787863, -32.9215189 ], [ -68.7864668, -32.921604 ], [ -68.7854181, -32.9216597 ], [ -68.7850739, -32.921678 ], [ -68.7849433, -32.9216921 ], [ -68.7831069, -32.9217917 ], [ -68.781286, -32.9218746 ], [ -68.7794498, -32.9219693 ], [ -68.7776947, -32.9220788 ], [ -68.7753967, -32.9221867 ], [ -68.7752993, -32.9221913 ], [ -68.7730184, -32.9222984 ], [ -68.7727843, -32.9223149 ], [ -68.7723403, -32.9223462 ], [ -68.7720456, -32.9223984 ], [ -68.7709607, -32.9226645 ], [ -68.7707513, -32.9227199 ], [ -68.767819, -32.9233548 ], [ -68.767101, -32.9235151 ], [ -68.766992, -32.9235543 ], [ -68.7666146, -32.9237504 ], [ -68.758309920139311, -32.925935058746788 ] ] ] } },
{ "type": "Feature", "properties": { "Importanci": "Limite", "Sentido": null, "Nombre": "Pedro Goyena" }, "geometry": { "type": "MultiLineString", "coordinates": [ [ [ -68.7873769, -32.9257649 ], [ -68.7867267, -32.9258576 ], [ -68.7860667, -32.9259386 ], [ -68.7854079, -32.9260195 ], [ -68.7847609, -32.926099 ], [ -68.7841182, -32.9261779 ], [ -68.7837169, -32.9262272 ], [ -68.7834393, -32.9262613 ], [ -68.7828298, -32.9263361 ], [ -68.782249, -32.9264075 ], [ -68.7817839, -32.9264646 ], [ -68.7816054, -32.9264865 ], [ -68.7809899, -32.9265621 ], [ -68.7803534, -32.9266402 ], [ -68.7794339, -32.926865 ], [ -68.7790486, -32.926949 ], [ -68.7788234, -32.9269981 ], [ -68.7769686, -32.9274024 ], [ -68.7768631, -32.9274252 ], [ -68.773824526251673, -32.928042243295359 ] ] ] } },
{ "type": "Feature", "properties": { "Importanci": "Limite", "Sentido": null, "Nombre": "Curupaití" }, "geometry": { "type": "MultiLineString", "coordinates": [ [ [ -68.7783313, -32.9093698 ], [ -68.778331766311524, -32.909370833001908 ] ] ] } },
{ "type": "Feature", "properties": { "Importanci": "Frontera", "Sentido": null, "Nombre": "Carril Rodrí­guez Peña" }, "geometry": { "type": "MultiLineString", "coordinates": [ [ [ -68.761987416252211, -32.940601063904673 ], [ -68.7652413, -32.939823 ], [ -68.7709369, -32.9384501 ], [ -68.7710694, -32.9384175 ], [ -68.7754132, -32.9372995 ], [ -68.7776618, -32.936738 ], [ -68.7795662, -32.9363084 ], [ -68.7798705, -32.9362287 ], [ -68.779951, -32.9362128 ], [ -68.7802237, -32.9361377 ], [ -68.7804737, -32.9360689 ], [ -68.7839812, -32.9352388 ], [ -68.7857051, -32.9348239 ], [ -68.7919707, -32.9333336 ], [ -68.7921296, -32.9332898 ], [ -68.7925773, -32.9331757 ], [ -68.7929369, -32.9330887 ], [ -68.7936013, -32.9329277 ], [ -68.7941932, -32.9327888 ], [ -68.7958728, -32.9323937 ], [ -68.7963915, -32.9322717 ], [ -68.7967168, -32.9322154 ], [ -68.7970664, -32.9321522 ], [ -68.7972961, -32.9321116 ], [ -68.797958, -32.9319924 ] ] ] } },
{ "type": "Feature", "properties": { "Importanci": "Frontera", "Sentido": null, "Nombre": "Av. Acceso Este" }, "geometry": { "type": "MultiLineString", "coordinates": [ [ [ -68.783481857298554, -32.907838187660502 ], [ -68.782228, -32.9080564 ], [ -68.7813177, -32.9082672 ], [ -68.7808721, -32.9084036 ], [ -68.7801249, -32.9086294 ], [ -68.7791691, -32.9089906 ], [ -68.7783313, -32.9093698 ], [ -68.778330326271956, -32.909370314877101 ] ] ] } },
{ "type": "Feature", "properties": { "Importanci": "Frontera", "Sentido": null, "Nombre": "Gabrielli (Ex Urquiza)" }, "geometry": { "type": "MultiLineString", "coordinates": [ [ [ -68.797958, -32.9319924 ], [ -68.7978632, -32.9318678 ], [ -68.7977967, -32.9317578 ], [ -68.7977141, -32.9315863 ], [ -68.7975834, -32.9313493 ], [ -68.7960899, -32.9291502 ], [ -68.7939713, -32.9258613 ], [ -68.7939461, -32.9258222 ], [ -68.7937657, -32.9255263 ], [ -68.793258, -32.9247587 ], [ -68.7926281, -32.9238024 ], [ -68.7923917, -32.9234435 ], [ -68.7911771, -32.9215429 ], [ -68.7910766, -32.9212963 ], [ -68.7905942, -32.9204053 ], [ -68.7900797, -32.9195295 ], [ -68.7900476, -32.9194748 ], [ -68.7887633, -32.91747 ], [ -68.7884493, -32.9169558 ], [ -68.7883947, -32.9168584 ], [ -68.7880708, -32.9163161 ], [ -68.7877262, -32.9157392 ], [ -68.7876622, -32.9156352 ], [ -68.7871577, -32.9148149 ], [ -68.786975, -32.9145178 ], [ -68.7864002, -32.9135485 ], [ -68.7856753, -32.912209 ], [ -68.7853805, -32.9115881 ], [ -68.785099, -32.9110538 ], [ -68.7847562, -32.9102896 ], [ -68.7844417, -32.9096752 ], [ -68.7838279, -32.9085603 ], [ -68.7837713, -32.9084509 ], [ -68.783485337616085, -32.907844031430486 ] ] ] } },
{ "type": "Feature", "properties": { "Importanci": null, "Sentido": null, "Nombre": null }, "geometry": { "type": "MultiLineString", "coordinates": [ [ [ -68.768710171322581, -32.91762812932464 ], [ -68.7684818, -32.9178169 ], [ -68.7683881, -32.9178924 ], [ -68.7683395, -32.9179455 ], [ -68.7682765, -32.9180333 ], [ -68.768243, -32.9181014 ], [ -68.7682182, -32.9181853 ], [ -68.7682182, -32.9182253 ], [ -68.7682463, -32.9183514 ], [ -68.7683343, -32.9184783 ] ] ] } },
{ "type": "Feature", "properties": { "Importanci": "Frontera", "Sentido": null, "Nombre": "Avenida de Acceso Este" }, "geometry": { "type": "MultiLineString", "coordinates": [ [ [ -68.768590485725028, -32.917578775406987 ], [ -68.7657505, -32.9198343 ], [ -68.7643094, -32.9209664 ], [ -68.7606401, -32.9239256 ], [ -68.7581584, -32.9258696 ], [ -68.7555793, -32.9279381 ], [ -68.7544768910291, -32.9288002308922 ] ] ] } },
{ "type": "Feature", "properties": { "Importanci": null, "Sentido": null, "Nombre": "Curupaití" }, "geometry": { "type": "MultiLineString", "coordinates": [ [ [ -68.778331766311524, -32.909370833001908 ], [ -68.779319663960933, -32.91155928452077 ] ] ] } },
{ "type": "Feature", "properties": { "Importanci": "Frontera", "Sentido": null, "Nombre": "Avenida de Acceso Este" }, "geometry": { "type": "MultiLineString", "coordinates": [ [ [ -68.778330326271956, -32.909370314877101 ], [ -68.7780202, -32.9095343 ], [ -68.7776281, -32.9097661 ], [ -68.7773217, -32.9099756 ], [ -68.7771437, -32.9101184 ], [ -68.7769575, -32.9102653 ], [ -68.7767591, -32.9104527 ], [ -68.7764887, -32.9106918 ], [ -68.7762456, -32.910928 ], [ -68.7746917, -32.9126546 ], [ -68.7745249, -32.9128096 ], [ -68.7743494, -32.9129667 ], [ -68.773717, -32.9135021 ], [ -68.7712083, -32.9154997 ], [ -68.768590485725028, -32.917578775406987 ] ] ] } },
{ "type": "Feature", "properties": { "Importanci": null, "Sentido": null, "Nombre": "Miguel Cané" }, "geometry": { "type": "MultiLineString", "coordinates": [ [ [ -68.776197243659425, -32.915741429822049 ], [ -68.7753851, -32.9138179 ], [ -68.7751516, -32.9132942 ], [ -68.774950380443215, -32.912884862792872 ] ] ] } },
{ "type": "Feature", "properties": { "Importanci": null, "Sentido": null, "Nombre": "9 de Julio" }, "geometry": { "type": "MultiLineString", "coordinates": [ [ [ -68.7743604, -32.916202 ], [ -68.7735681, -32.913998 ] ] ] } },
{ "type": "Feature", "properties": { "Importanci": "Limite", "Sentido": null, "Nombre": "San Francisco del Monte" }, "geometry": { "type": "MultiLineString", "coordinates": [ [ [ -68.78364522708668, -32.9321177600916 ], [ -68.783639161370772, -32.93211266904359 ], [ -68.7802135, -32.9329259 ], [ -68.7789337, -32.9332388 ], [ -68.7768394, -32.9337301 ], [ -68.7756258, -32.9340296 ], [ -68.7707119, -32.9351967 ], [ -68.7696053, -32.9354609 ], [ -68.7693486, -32.9355297 ], [ -68.760389272300671, -32.937679555017318 ] ] ] } },
{ "type": "Feature", "properties": { "Importanci": null, "Sentido": null, "Nombre": "Elpidio González" }, "geometry": { "type": "MultiLineString", "coordinates": [ [ [ -68.766262646327746, -32.923883603943658 ], [ -68.7656096, -32.9240155 ], [ -68.7616821, -32.9248998 ], [ -68.7601668, -32.9252594 ], [ -68.75975, -32.9254501 ], [ -68.7591625, -32.9258006 ], [ -68.7589769, -32.9258892 ], [ -68.7588298, -32.9259358 ], [ -68.7587484, -32.9259536 ], [ -68.7586548, -32.9259649 ], [ -68.758513, -32.925967 ], [ -68.7584175, -32.925964 ], [ -68.7583219, -32.9259551 ] ] ] } },
{ "type": "Feature", "properties": { "Importanci": null, "Sentido": null, "Nombre": "Castro" }, "geometry": { "type": "MultiLineString", "coordinates": [ [ [ -68.776155358577682, -32.915814170875429 ], [ -68.7743604, -32.916202 ], [ -68.774048, -32.9162793 ], [ -68.7714204, -32.9168388 ], [ -68.7702728, -32.9170849 ], [ -68.7701175, -32.9171896 ], [ -68.7699607, -32.9173045 ], [ -68.7697751, -32.9174316 ], [ -68.7696506, -32.917527 ], [ -68.7695263, -32.9176228 ] ] ] } },
{ "type": "Feature", "properties": { "Importanci": null, "Sentido": null, "Nombre": "Castro" }, "geometry": { "type": "MultiLineString", "coordinates": [ [ [ -68.783426861314041, -32.914234920126773 ], [ -68.7819978, -32.914563 ], [ -68.7812091, -32.9147367 ], [ -68.7811024, -32.9147602 ], [ -68.7809702, -32.914795 ], [ -68.7803423, -32.9149234 ], [ -68.7795515, -32.9150852 ], [ -68.7788797, -32.9152226 ], [ -68.7775466, -32.9155112 ], [ -68.777317, -32.9155583 ], [ -68.7768722, -32.9156556 ], [ -68.7762472, -32.9157896 ] ] ] } },
{ "type": "Feature", "properties": { "Importanci": "Limite", "Sentido": null, "Nombre": "Curupaití" }, "geometry": { "type": "MultiLineString", "coordinates": [ [ [ -68.778431209458176, -32.90948675901582 ], [ -68.780351706816745, -32.91329089761247 ], [ -68.7809702, -32.914795 ], [ -68.7827535, -32.9178909 ], [ -68.7830177, -32.9183494 ], [ -68.7833101, -32.918857 ], [ -68.783765, -32.9196467 ], [ -68.784063, -32.920164 ], [ -68.7849433, -32.9216921 ], [ -68.7855827, -32.9227621 ], [ -68.7862196, -32.923828 ], [ -68.7867832, -32.9247713 ], [ -68.7873769, -32.9257649 ], [ -68.7876071, -32.9261502 ], [ -68.792025318211969, -32.933183562964032 ] ] ] } },
{ "type": "Feature", "properties": { "Importanci": null, "Sentido": null, "Nombre": "Ascasubi" }, "geometry": { "type": "MultiLineString", "coordinates": [ [ [ -68.7802437, -32.9197395 ], [ -68.7803356, -32.9198791 ], [ -68.7807339, -32.9205557 ] ], [ [ -68.780231430124957, -32.91972596238336 ], [ -68.779535468683164, -32.918494894546242 ] ] ] } },
{ "type": "Feature", "properties": { "Importanci": null, "Sentido": null, "Nombre": "Adolfo Calle" }, "geometry": { "type": "MultiLineString", "coordinates": [ [ [ -68.779874826912277, -32.91146674078832 ], [ -68.779874496070818, -32.911466817939683 ] ] ] } },
{ "type": "Feature", "properties": { "Importanci": null, "Sentido": null, "Nombre": "Adolfo Calle" }, "geometry": { "type": "MultiLineString", "coordinates": [ [ [ -68.779338568792994, -32.911578089162887 ], [ -68.780477, -32.9113271 ], [ -68.7810227, -32.9112085 ], [ -68.7814611, -32.9111194 ], [ -68.7819026, -32.9110261 ], [ -68.7824224, -32.910898 ], [ -68.7830665, -32.9107563 ], [ -68.7846848, -32.9105699 ] ] ] } },
{ "type": "Feature", "properties": { "Importanci": null, "Sentido": null, "Nombre": null }, "geometry": { "type": "MultiLineString", "coordinates": [ [ [ -68.7690902, -32.9192972 ], [ -68.7690336, -32.9191635 ], [ -68.7689132, -32.9189273 ], [ -68.7688159, -32.9187387 ], [ -68.7688074, -32.918721 ], [ -68.7684207, -32.9179165 ] ] ] } },
{ "type": "Feature", "properties": { "Importanci": "Limite", "Sentido": null, "Nombre": "Tapón Moyano" }, "geometry": { "type": "MultiLineString", "coordinates": [ [ [ -68.770931576212234, -32.922588918598784 ], [ -68.7693396, -32.919169 ], [ -68.7686825, -32.9177139 ], [ -68.768629073588286, -32.917594687615846 ] ] ] } },
{ "type": "Feature", "properties": { "Importanci": null, "Sentido": null, "Nombre": null }, "geometry": { "type": "MultiLineString", "coordinates": [ [ [ -68.7673771, -32.918664 ], [ -68.7673825, -32.9186689 ], [ -68.767425, -32.9186867 ], [ -68.7674622, -32.9186941 ], [ -68.7675029, -32.9186941 ], [ -68.7675577, -32.9186763 ], [ -68.7678125, -32.9185857 ], [ -68.7680682, -32.9185754 ], [ -68.7683151, -32.9186332 ], [ -68.7685515, -32.9186754 ], [ -68.7687941, -32.9187339 ], [ -68.7688159, -32.9187387 ] ] ] } },
{ "type": "Feature", "properties": { "Importanci": null, "Sentido": null, "Nombre": "25 de Mayo" }, "geometry": { "type": "MultiLineString", "coordinates": [ [ [ -68.783814213198028, -32.908562617256116 ], [ -68.7830191, -32.9086068 ], [ -68.7828558, -32.9086135 ], [ -68.7814066, -32.9087061 ], [ -68.7808601, -32.9087389 ], [ -68.7805336, -32.9087494 ], [ -68.7804776, -32.9087547 ], [ -68.780313, -32.9087704 ], [ -68.7801616, -32.9088184 ], [ -68.7789282, -32.9093352 ], [ -68.7785021, -32.9095438 ], [ -68.7777431, -32.9100034 ], [ -68.7772258, -32.9103502 ], [ -68.7767958, -32.9107451 ], [ -68.7760006, -32.911618 ], [ -68.7755087, -32.9121811 ], [ -68.7749395, -32.912802 ], [ -68.7744838, -32.9131918 ], [ -68.7735681, -32.913998 ], [ -68.7728091, -32.914578 ], [ -68.7713693, -32.9157233 ], [ -68.7709626, -32.9160405 ], [ -68.77006, -32.9167411 ], [ -68.7698556, -32.9169439 ], [ -68.769696, -32.9171503 ], [ -68.769597, -32.9173549 ], [ -68.7695263, -32.9176228 ], [ -68.7695571, -32.9181833 ], [ -68.7695912, -32.9185156 ], [ -68.7696027, -32.9187318 ], [ -68.7696006, -32.9188493 ], [ -68.7695655, -32.918977 ], [ -68.769494, -32.9190695 ], [ -68.7693396, -32.919169 ], [ -68.7692383, -32.9192094 ], [ -68.7691143, -32.9192279 ], [ -68.7690763, -32.9192299 ], [ -68.769006, -32.9192154 ], [ -68.7689602, -32.9191991 ], [ -68.7689071, -32.9191717 ], [ -68.7688578, -32.919146 ], [ -68.7687236, -32.9189953 ], [ -68.7686192, -32.9189494 ], [ -68.7685599, -32.9189205 ], [ -68.7684932, -32.9189 ], [ -68.7684353, -32.9188779 ], [ -68.7683611, -32.9188548 ], [ -68.7682981, -32.9188403 ], [ -68.7682488, -32.9188268 ] ], [ [ -68.7687236, -32.9189953 ], [ -68.7685397, -32.9187333 ], [ -68.7684992, -32.9186967 ], [ -68.7684703, -32.9186693 ], [ -68.7684448, -32.9186327 ], [ -68.7684197, -32.9185831 ] ], [ [ -68.7682119, -32.918827 ], [ -68.7680685, -32.9188498 ], [ -68.7679749, -32.9188653 ], [ -68.7678932, -32.9188811 ], [ -68.7678018, -32.9189038 ], [ -68.7677122, -32.9189275 ], [ -68.7675498, -32.9189855 ], [ -68.7674434, -32.9190395 ], [ -68.7673653, -32.9190765 ], [ -68.7672775, -32.9191205 ], [ -68.7671811, -32.9191722 ], [ -68.7667952, -32.9193961 ], [ -68.7665901, -32.9195233 ], [ -68.7663936, -32.9196713 ], [ -68.7658448, -32.9200883 ], [ -68.7654968, -32.920359 ], [ -68.765415, -32.9204318 ], [ -68.7653062, -32.9205225 ], [ -68.7644664, -32.9211654 ], [ -68.762831400860804, -32.922476992428784 ], [ -68.7618101, -32.923286 ], [ -68.7607852, -32.9241158 ], [ -68.7606293, -32.9242558 ], [ -68.7605439, -32.9243564 ], [ -68.7604281, -32.9245538 ], [ -68.76029419462499, -32.924915385439064 ], [ -68.7601668, -32.9252594 ], [ -68.7599539, -32.925645 ], [ -68.7597422, -32.9259464 ], [ -68.7596674, -32.9260325 ], [ -68.7595371, -32.9261185 ], [ -68.758823257338904, -32.926488376119245 ], [ -68.7574432, -32.9269772 ], [ -68.7571559, -32.927106 ], [ -68.7569093, -32.9272553 ], [ -68.754652, -32.9289334 ], [ -68.7545855, -32.9289943 ] ] ] } },
{ "type": "Feature", "properties": { "Importanci": null, "Sentido": "Ambos", "Nombre": null }, "geometry": { "type": "MultiLineString", "coordinates": [ [ [ -68.7739589, -32.9251859 ], [ -68.772281423677995, -32.925306531772058 ] ] ] } },
{ "type": "Feature", "properties": { "Importanci": null, "Sentido": null, "Nombre": "Canal Pescara" }, "geometry": { "type": "MultiLineString", "coordinates": [ [ [ -68.770710349758033, -32.934516075638257 ], [ -68.7709232, -32.9367837 ], [ -68.7709418, -32.9380606 ], [ -68.771038789978377, -32.938348859654155 ] ], [ [ -68.764368381935455, -32.921059313019612 ], [ -68.7644156, -32.9211036 ], [ -68.7644724, -32.9211766 ], [ -68.7664277, -32.923845 ], [ -68.766462, -32.9239184 ], [ -68.7666556, -32.9243325 ], [ -68.7671288, -32.9248932 ], [ -68.7683998, -32.9271515 ], [ -68.7686874, -32.9276811 ], [ -68.7696708, -32.9295811 ], [ -68.7700604, -32.930095 ], [ -68.7704408, -32.9309905 ], [ -68.7704686, -32.9325089 ], [ -68.7707191, -32.9344789 ] ] ] } },
{ "type": "Feature", "properties": { "Importanci": null, "Sentido": null, "Nombre": "Las Acacias" }, "geometry": { "type": "MultiLineString", "coordinates": [ [ [ -68.7688783, -32.9263884 ], [ -68.7688149, -32.9264173 ], [ -68.7683769, -32.9265999 ], [ -68.7683035, -32.9265993 ], [ -68.7682539, -32.9265664 ], [ -68.7677596, -32.925713 ], [ -68.7668141, -32.9240774 ], [ -68.7668082, -32.9240492 ], [ -68.7668247, -32.9240142 ], [ -68.7671824, -32.9237252 ], [ -68.7672677, -32.9236884 ], [ -68.767332, -32.9236664 ], [ -68.7677158, -32.9235864 ], [ -68.7677729, -32.9235607 ], [ -68.767839635794644, -32.923520480403901 ] ] ] } },
{ "type": "Feature", "properties": { "Importanci": null, "Sentido": null, "Nombre": "Victoria Ocampo" }, "geometry": { "type": "MultiLineString", "coordinates": [ [ [ -68.7820012, -32.9205165 ], [ -68.781903, -32.9203697 ], [ -68.7815111, -32.9196699 ], [ -68.781244, -32.9191919 ], [ -68.7809809, -32.9187225 ], [ -68.7806998, -32.9182618 ], [ -68.7804241, -32.9175424 ], [ -68.779569463291963, -32.915132781724196 ] ] ] } },
{ "type": "Feature", "properties": { "Importanci": null, "Sentido": null, "Nombre": null }, "geometry": { "type": "MultiLineString", "coordinates": [ [ [ -68.7879675, -32.9163963 ], [ -68.7878227, -32.9161596 ], [ -68.7875404, -32.915698 ], [ -68.7870105, -32.9148316 ], [ -68.7866495, -32.9142334 ], [ -68.7862561, -32.9135815 ], [ -68.7859708, -32.9131534 ], [ -68.7858243, -32.9128425 ], [ -68.7855522, -32.9122388 ], [ -68.7849504, -32.9110597 ], [ -68.784701080243025, -32.91059473668124 ] ] ] } },
{ "type": "Feature", "properties": { "Importanci": null, "Sentido": null, "Nombre": "Ascasubi" }, "geometry": { "type": "MultiLineString", "coordinates": [ [ [ -68.777317, -32.9155583 ], [ -68.776906509456211, -32.914113321526663 ] ], [ [ -68.776905519033903, -32.914109835115255 ], [ -68.776893826080212, -32.914100151053745 ], [ -68.7767311, -32.9135894 ], [ -68.7765922, -32.9130733 ], [ -68.776426, -32.9125918 ], [ -68.7762212, -32.9120658 ], [ -68.7760006, -32.911618 ] ] ] } },
{ "type": "Feature", "properties": { "Importanci": "Frontera", "Sentido": null, "Nombre": "Empresa Maldonado" }, "geometry": { "type": "MultiLineString", "coordinates": [ [ [ -68.761973494982087, -32.940606905511281 ], [ -68.760268139393901, -32.937721104853296 ] ] ] } },
{ "type": "Feature", "properties": { "Importanci": null, "Sentido": null, "Nombre": "Mafalda" }, "geometry": { "type": "MultiLineString", "coordinates": [ [ [ -68.781879784353436, -32.920339615633303 ], [ -68.780739023014931, -32.92056710811304 ] ] ] } },
{ "type": "Feature", "properties": { "Importanci": null, "Sentido": null, "Nombre": "Moyano Aguirre" }, "geometry": { "type": "MultiLineString", "coordinates": [ [ [ -68.783603531458837, -32.912641560315834 ], [ -68.783086722454641, -32.910773821233569 ] ] ] } },
{ "type": "Feature", "properties": { "Importanci": null, "Sentido": null, "Nombre": "Visconti" }, "geometry": { "type": "MultiLineString", "coordinates": [ [ [ -68.786505855195742, -32.913993397872908 ], [ -68.784369291141857, -32.914490741916296 ] ] ] } },
{ "type": "Feature", "properties": { "Importanci": null, "Sentido": null, "Nombre": null }, "geometry": { "type": "MultiLineString", "coordinates": [ [ [ -68.779128721788481, -32.926960465713684 ], [ -68.779629774420599, -32.927846558678027 ] ] ] } },
{ "type": "Feature", "properties": { "Importanci": null, "Sentido": null, "Nombre": null }, "geometry": { "type": "MultiLineString", "coordinates": [ [ [ -68.779532084913697, -32.926873178463886 ], [ -68.780042591369053, -32.927796302896539 ] ] ] } },
{ "type": "Feature", "properties": { "Importanci": null, "Sentido": null, "Nombre": null }, "geometry": { "type": "MultiLineString", "coordinates": [ [ [ -68.778613488421499, -32.927068913388908 ], [ -68.779142902523361, -32.927993358297279 ] ] ] } },
{ "type": "Feature", "properties": { "Importanci": null, "Sentido": null, "Nombre": null }, "geometry": { "type": "MultiLineString", "coordinates": [ [ [ -68.777534964752689, -32.923729457537711 ], [ -68.778158917087012, -32.925353572997849 ] ] ] } },
{ "type": "Feature", "properties": { "Importanci": null, "Sentido": null, "Nombre": null }, "geometry": { "type": "MultiLineString", "coordinates": [ [ [ -68.777005550650841, -32.925374733914595 ], [ -68.776104286167921, -32.923814102728009 ] ] ] } },
{ "type": "Feature", "properties": { "Importanci": null, "Sentido": null, "Nombre": null }, "geometry": { "type": "MultiLineString", "coordinates": [ [ [ -68.776999248102015, -32.925385314371063 ], [ -68.775902604605335, -32.925469957977342 ] ] ] } },
{ "type": "Feature", "properties": { "Importanci": null, "Sentido": null, "Nombre": null }, "geometry": { "type": "MultiLineString", "coordinates": [ [ [ -68.785337520206141, -32.923877586567585 ], [ -68.784707265323007, -32.922798355100404 ] ] ] } },
{ "type": "Feature", "properties": { "Importanci": null, "Sentido": null, "Nombre": null }, "geometry": { "type": "MultiLineString", "coordinates": [ [ [ -68.783821757212181, -32.92401248957546 ], [ -68.783941505639973, -32.925007062266154 ] ] ] } },
{ "type": "Feature", "properties": { "Importanci": null, "Sentido": null, "Nombre": null }, "geometry": { "type": "MultiLineString", "coordinates": [ [ [ -68.783932051816734, -32.925062609879369 ], [ -68.784099069360778, -32.926155039185545 ] ] ] } },
{ "type": "Feature", "properties": { "Importanci": null, "Sentido": null, "Nombre": "Los Condores" }, "geometry": { "type": "MultiLineString", "coordinates": [ [ [ -68.7861132, -32.9288253 ], [ -68.7864175, -32.9293499 ], [ -68.7867149, -32.9298626 ], [ -68.78671426880679, -32.929862755513703 ] ] ] } },
{ "type": "Feature", "properties": { "Importanci": null, "Sentido": null, "Nombre": "Los Condores" }, "geometry": { "type": "MultiLineString", "coordinates": [ [ [ -68.784047138562158, -32.930514633045263 ], [ -68.7840046, -32.9304996 ], [ -68.7837966, -32.9299298 ] ] ] } },
{ "type": "Feature", "properties": { "Importanci": "Limite", "Sentido": null, "Nombre": "9 de Julio" }, "geometry": { "type": "MultiLineString", "coordinates": [ [ [ -68.777740834590702, -32.922247365028312 ], [ -68.7782556, -32.9230671 ], [ -68.7786077, -32.9236591 ], [ -68.7787453, -32.9238906 ], [ -68.7793997, -32.9250048 ], [ -68.7798273, -32.9257831 ], [ -68.7803534, -32.9266402 ], [ -68.780845, -32.9274756 ], [ -68.7813909, -32.9284292 ], [ -68.7816456, -32.9288633 ], [ -68.7819158, -32.9293237 ], [ -68.782075, -32.9295949 ], [ -68.7824445, -32.9302248 ], [ -68.7827426, -32.9307327 ], [ -68.7829831, -32.9311425 ], [ -68.783444, -32.9318808 ], [ -68.7835469, -32.9319837 ], [ -68.7838014, -32.9320712 ], [ -68.7839661, -32.9321284 ], [ -68.7840658, -32.9321855 ], [ -68.7841676, -32.9322931 ], [ -68.785625615111442, -32.934718648488122 ] ] ] } },
{ "type": "Feature", "properties": { "Importanci": null, "Sentido": null, "Nombre": null }, "geometry": { "type": "MultiLineString", "coordinates": [ [ [ -68.773316710836568, -32.927636171916376 ], [ -68.77025115108485, -32.928772617735532 ] ] ] } }
]
};