var caminosinternos={
"type": "FeatureCollection",
"name": "internos",
"crs": { "type": "name", "properties": { "name": "urn:ogc:def:crs:OGC:1.3:CRS84" } },
"features": [
{ "type": "Feature", "properties": { "id": null }, "geometry": { "type": "MultiLineString", "coordinates": [ [ [ -68.867052663691382, -33.002913908524015 ], [ -68.866729101597969, -33.002951547597746 ] ] ] } },
{ "type": "Feature", "properties": { "id": null }, "geometry": { "type": "MultiLineString", "coordinates": [ [ [ -68.866729101597969, -33.002951547597746 ], [ -68.866680998291571, -33.00319950987793 ] ] ] } },
{ "type": "Feature", "properties": { "id": null }, "geometry": { "type": "MultiLineString", "coordinates": [ [ [ -68.866680998291571, -33.00319950987793 ], [ -68.866598553816303, -33.003360295513453 ], [ -68.866526833598613, -33.00344289006209 ], [ -68.866423356844791, -33.003482997810096 ], [ -68.866311988934655, -33.003480644239161 ], [ -68.866200691861948, -33.003431369148188 ], [ -68.866070949532386, -33.0033049888535 ] ] ] } },
{ "type": "Feature", "properties": { "id": null }, "geometry": { "type": "MultiLineString", "coordinates": [ [ [ -68.866680998291571, -33.00319950987793 ], [ -68.866672881898424, -33.003306750349296 ], [ -68.866712438877244, -33.003452025796832 ], [ -68.866736179845219, -33.003534722351084 ], [ -68.866714801616993, -33.003644183018658 ], [ -68.866637737524613, -33.003753584204169 ], [ -68.866555383280698, -33.003854042257707 ], [ -68.866459814057293, -33.003925439480746 ], [ -68.866345713016244, -33.00397670757895 ], [ -68.8662024834709, -33.004001132074784 ], [ -68.866077873233991, -33.00398759231674 ], [ -68.865892195906937, -33.004025377052592 ] ] ] } },
{ "type": "Feature", "properties": { "id": null }, "geometry": { "type": "MultiLineString", "coordinates": [ [ [ -68.866729101597969, -33.002951547597746 ], [ -68.866676259540824, -33.002824132814645 ], [ -68.866535868667853, -33.00272567108415 ], [ -68.866368907494433, -33.00266293047239 ], [ -68.866201872356982, -33.002649345417922 ], [ -68.866074524572383, -33.00269389601111 ], [ -68.866005429062909, -33.002794367942521 ], [ -68.865984026466407, -33.00291946897088 ] ] ] } },
{ "type": "Feature", "properties": { "id": null }, "geometry": { "type": "MultiLineString", "coordinates": [ [ [ -68.865984026466407, -33.00291946897088 ], [ -68.866028858496492, -33.003082625161753 ], [ -68.866055152496301, -33.00323012094411 ], [ -68.866070949532386, -33.0033049888535 ] ] ] } },
{ "type": "Feature", "properties": { "id": null }, "geometry": { "type": "MultiLineString", "coordinates": [ [ [ -68.866028858496492, -33.003082625161753 ], [ -68.866236401752943, -33.003050449537874 ] ] ] } },
{ "type": "Feature", "properties": { "id": null }, "geometry": { "type": "MultiLineString", "coordinates": [ [ [ -68.865892195906937, -33.004025377052592 ], [ -68.865990355687813, -33.004433252561107 ] ] ] } },
{ "type": "Feature", "properties": { "id": null }, "geometry": { "type": "MultiLineString", "coordinates": [ [ [ -68.867149444458434, -33.004244571130606 ], [ -68.866892167217799, -33.004284515491499 ], [ -68.866282119660994, -33.004384409579671 ], [ -68.865990355687813, -33.004433252561107 ], [ -68.865693267626469, -33.004495495271406 ], [ -68.865183986436548, -33.004593258000185 ], [ -68.864767552290459, -33.004666541341415 ], [ -68.864237055227605, -33.00476427721663 ], [ -68.863162798910551, -33.004959727657237 ], [ -68.858229088819002, -33.005874776740995 ], [ -68.856669415796489, -33.006141118380597 ] ] ] } },
{ "type": "Feature", "properties": { "id": null }, "geometry": { "type": "MultiLineString", "coordinates": [ [ [ -68.865990355687813, -33.004433252561107 ], [ -68.866016808767412, -33.004475733731134 ], [ -68.866111660002659, -33.004880254030617 ], [ -68.865769484165213, -33.004946917262636 ], [ -68.865689915008971, -33.004958003461262 ], [ -68.865629019811706, -33.004895375948834 ], [ -68.865586802073665, -33.004756800397871 ], [ -68.865616096509669, -33.0046741607458 ], [ -68.865695726364336, -33.004622856240971 ], [ -68.865693267626469, -33.004495495271406 ] ] ] } },
{ "type": "Feature", "properties": { "id": null }, "geometry": { "type": "MultiLineString", "coordinates": [ [ [ -68.865183986436548, -33.004593258000185 ], [ -68.865175857902017, -33.004707201403747 ], [ -68.865175789923782, -33.004751888460049 ], [ -68.865257511352908, -33.005069255306395 ] ] ] } },
{ "type": "Feature", "properties": { "id": null }, "geometry": { "type": "MultiLineString", "coordinates": [ [ [ -68.864767552290459, -33.004666541341415 ], [ -68.865083787435097, -33.005962810153441 ] ] ] } },
{ "type": "Feature", "properties": { "id": null }, "geometry": { "type": "MultiLineString", "coordinates": [ [ [ -68.858229088819002, -33.005874776740995 ], [ -68.858577011404165, -33.007197909893549 ] ] ] } },
{ "type": "Feature", "properties": { "id": null }, "geometry": { "type": "MultiLineString", "coordinates": [ [ [ -68.858229088819002, -33.005874776740995 ], [ -68.858144418218373, -33.005758494050013 ], [ -68.857870397651041, -33.004658879194281 ], [ -68.857743932206802, -33.004149301904349 ], [ -68.85767021518437, -33.003818533122264 ] ] ] } },
{ "type": "Feature", "properties": { "id": null }, "geometry": { "type": "MultiLineString", "coordinates": [ [ [ -68.857870397651041, -33.004658879194281 ], [ -68.865689971986654, -33.003170518127348 ] ] ] } },
{ "type": "Feature", "properties": { "id": null }, "geometry": { "type": "MultiLineString", "coordinates": [ [ [ -68.856406004867836, -33.005050450010174 ], [ -68.856553620083517, -33.005595802570404 ], [ -68.856669415796489, -33.006141118380597 ], [ -68.856732104842649, -33.006731060208054 ], [ -68.856858163889086, -33.007490885627313 ], [ -68.85688802277366, -33.00870640896003 ] ] ] } },
{ "type": "Feature", "properties": { "id": null }, "geometry": { "type": "MultiLineString", "coordinates": [ [ [ -68.856858163889086, -33.007490885627313 ], [ -68.858577011404165, -33.007197909893542 ], [ -68.859712338718126, -33.006975755426232 ], [ -68.863001470189516, -33.006398476017736 ], [ -68.863712326991148, -33.006283067630385 ] ] ] } },
{ "type": "Feature", "properties": { "id": null }, "geometry": { "type": "MultiLineString", "coordinates": [ [ [ -68.863712326991148, -33.006283067630385 ], [ -68.864007570971609, -33.007427379728007 ] ] ] } },
{ "type": "Feature", "properties": { "id": null }, "geometry": { "type": "MultiLineString", "coordinates": [ [ [ -68.864007570971609, -33.007427379728007 ], [ -68.863238337776806, -33.007560600662622 ], [ -68.85998626212313, -33.008155802550718 ], [ -68.85688802277366, -33.00870640896003 ] ] ] } },
{ "type": "Feature", "properties": { "id": null }, "geometry": { "type": "MultiLineString", "coordinates": [ [ [ -68.85998626212313, -33.008155802550718 ], [ -68.859712338718126, -33.006975755426232 ] ] ] } },
{ "type": "Feature", "properties": { "id": null }, "geometry": { "type": "MultiLineString", "coordinates": [ [ [ -68.863712326991148, -33.006283067630385 ], [ -68.863696505653905, -33.006224957103129 ], [ -68.863696533145102, -33.006207082285968 ], [ -68.865083787435097, -33.005962810153441 ] ] ] } },
{ "type": "Feature", "properties": { "id": null }, "geometry": { "type": "MultiLineString", "coordinates": [ [ [ -68.863238337776806, -33.007560600662622 ], [ -68.863001470189516, -33.006398476017736 ] ] ] } },
{ "type": "Feature", "properties": { "id": null }, "geometry": { "type": "MultiLineString", "coordinates": [ [ [ -68.865892195906937, -33.004025377052592 ], [ -68.86573211467595, -33.00335824945121 ], [ -68.865689971986654, -33.003170518127348 ], [ -68.865637188875482, -33.003005118903353 ], [ -68.865574070338582, -33.002660959947363 ], [ -68.865378980001907, -33.001914474361421 ] ] ] } },
{ "type": "Feature", "properties": { "id": null }, "geometry": { "type": "MultiLineString", "coordinates": [ [ [ -68.865984026466407, -33.00291946897088 ], [ -68.865637188875482, -33.003005118903353 ] ] ] } },
{ "type": "Feature", "properties": { "id": null }, "geometry": { "type": "MultiLineString", "coordinates": [ [ [ -68.866070949532386, -33.003304988853507 ], [ -68.86573211467595, -33.00335824945121 ] ] ] } },
{ "type": "Feature", "properties": { "id": null }, "geometry": { "type": "MultiLineString", "coordinates": [ [ [ -68.865637188875482, -33.003005118903353 ], [ -68.864682310210043, -33.003182836084456 ] ] ] } },
{ "type": "Feature", "properties": { "id": null }, "geometry": { "type": "MultiLineString", "coordinates": [ [ [ -68.865378980001907, -33.001914474361421 ], [ -68.858254319505846, -33.003363388957617 ], [ -68.858185089499045, -33.003542058865747 ], [ -68.858115980821353, -33.003644760743789 ], [ -68.85767021518437, -33.003818533122264 ] ] ] } }
]
};